<?xml version="1.0" encoding="UTF-8"?>
<gpx version="1.1" creator="SessionStats sample" xmlns="http://www.topografix.com/GPX/1/1" xmlns:gpxtpx="http://www.garmin.com/xmlschemas/TrackPointExtension/v1">
<trk><name>Sample loop</name><type>running</type><trkseg>
<trkpt lat="45.000000" lon="5.012500"><ele>200.0</ele><time>2026-05-17T07:30:00Z</time><extensions><gpxtpx:TrackPointExtension><gpxtpx:hr>140</gpxtpx:hr><gpxtpx:cad>84</gpxtpx:cad></gpxtpx:TrackPointExtension></extensions></trkpt>
<trkpt lat="45.000157" lon="5.012707"><ele>200.8</ele><time>2026-05-17T07:30:05Z</time><extensions><gpxtpx:TrackPointExtension><gpxtpx:hr>141</gpxtpx:hr><gpxtpx:cad>84</gpxtpx:cad></gpxtpx:TrackPointExtension></extensions></trkpt>
<trkpt lat="45.000314" lon="5.012910"><ele>201.6</ele><time>2026-05-17T07:30:10Z</time><extensions><gpxtpx:TrackPointExtension><gpxtpx:hr>142</gpxtpx:hr><gpxtpx:cad>84</gpxtpx:cad></gpxtpx:TrackPointExtension></extensions></trkpt>
<trkpt lat="45.000471" lon="5.013109"><ele>202.4</ele><time>2026-05-17T07:30:15Z</time><extensions><gpxtpx:TrackPointExtension><gpxtpx:hr>143</gpxtpx:hr><gpxtpx:cad>84</gpxtpx:cad></gpxtpx:TrackPointExtension></extensions></trkpt>
<trkpt lat="45.000628" lon="5.013301"><ele>203.1</ele><time>2026-05-17T07:30:20Z</time><extensions><gpxtpx:TrackPointExtension><gpxtpx:hr>144</gpxtpx:hr><gpxtpx:cad>84</gpxtpx:cad></gpxtpx:TrackPointExtension></extensions></trkpt>
<trkpt lat="45.000784" lon="5.013488"><ele>203.9</ele><time>2026-05-17T07:30:25Z</time><extensions><gpxtpx:TrackPointExtension><gpxtpx:hr>145</gpxtpx:hr><gpxtpx:cad>84</gpxtpx:cad></gpxtpx:TrackPointExtension></extensions></trkpt>
<trkpt lat="45.000941" lon="5.013668"><ele>204.7</ele><time>2026-05-17T07:30:30Z</time><extensions><gpxtpx:TrackPointExtension><gpxtpx:hr>146</gpxtpx:hr><gpxtpx:cad>84</gpxtpx:cad></gpxtpx:TrackPointExtension></extensions></trkpt>
<trkpt lat="45.001097" lon="5.013840"><ele>205.5</ele><time>2026-05-17T07:30:35Z</time><extensions><gpxtpx:TrackPointExtension><gpxtpx:hr>147</gpxtpx:hr><gpxtpx:cad>84</gpxtpx:cad></gpxtpx:TrackPointExtension></extensions></trkpt>
<trkpt lat="45.001253" lon="5.014005"><ele>206.2</ele><time>2026-05-17T07:30:40Z</time><extensions><gpxtpx:TrackPointExtension><gpxtpx:hr>148</gpxtpx:hr><gpxtpx:cad>84</gpxtpx:cad></gpxtpx:TrackPointExtension></extensions></trkpt>
<trkpt lat="45.001408" lon="5.014162"><ele>207.0</ele><time>2026-05-17T07:30:45Z</time><extensions><gpxtpx:TrackPointExtension><gpxtpx:hr>149</gpxtpx:hr><gpxtpx:cad>84</gpxtpx:cad></gpxtpx:TrackPointExtension></extensions></trkpt>
<trkpt lat="45.001563" lon="5.014310"><ele>207.8</ele><time>2026-05-17T07:30:50Z</time><extensions><gpxtpx:TrackPointExtension><gpxtpx:hr>150</gpxtpx:hr><gpxtpx:cad>84</gpxtpx:cad></gpxtpx:TrackPointExtension></extensions></trkpt>
<trkpt lat="45.001717" lon="5.014449"><ele>208.5</ele><time>2026-05-17T07:30:55Z</time><extensions><gpxtpx:TrackPointExtension><gpxtpx:hr>151</gpxtpx:hr><gpxtpx:cad>84</gpxtpx:cad></gpxtpx:TrackPointExtension></extensions></trkpt>
<trkpt lat="45.001871" lon="5.014578"><ele>209.3</ele><time>2026-05-17T07:31:00Z</time><extensions><gpxtpx:TrackPointExtension><gpxtpx:hr>152</gpxtpx:hr><gpxtpx:cad>84</gpxtpx:cad></gpxtpx:TrackPointExtension></extensions></trkpt>
<trkpt lat="45.002025" lon="5.014697"><ele>210.0</ele><time>2026-05-17T07:31:05Z</time><extensions><gpxtpx:TrackPointExtension><gpxtpx:hr>153</gpxtpx:hr><gpxtpx:cad>84</gpxtpx:cad></gpxtpx:TrackPointExtension></extensions></trkpt>
<trkpt lat="45.002177" lon="5.014805"><ele>210.7</ele><time>2026-05-17T07:31:10Z</time><extensions><gpxtpx:TrackPointExtension><gpxtpx:hr>154</gpxtpx:hr><gpxtpx:cad>84</gpxtpx:cad></gpxtpx:TrackPointExtension></extensions></trkpt>
<trkpt lat="45.002329" lon="5.014902"><ele>211.5</ele><time>2026-05-17T07:31:15Z</time><extensions><gpxtpx:TrackPointExtension><gpxtpx:hr>155</gpxtpx:hr><gpxtpx:cad>84</gpxtpx:cad></gpxtpx:TrackPointExtension></extensions></trkpt>
<trkpt lat="45.002481" lon="5.014988"><ele>212.2</ele><time>2026-05-17T07:31:20Z</time><extensions><gpxtpx:TrackPointExtension><gpxtpx:hr>156</gpxtpx:hr><gpxtpx:cad>84</gpxtpx:cad></gpxtpx:TrackPointExtension></extensions></trkpt>
<trkpt lat="45.002631" lon="5.015062"><ele>212.9</ele><time>2026-05-17T07:31:25Z</time><extensions><gpxtpx:TrackPointExtension><gpxtpx:hr>157</gpxtpx:hr><gpxtpx:cad>84</gpxtpx:cad></gpxtpx:TrackPointExtension></extensions></trkpt>
<trkpt lat="45.002781" lon="5.015124"><ele>213.6</ele><time>2026-05-17T07:31:30Z</time><extensions><gpxtpx:TrackPointExtension><gpxtpx:hr>158</gpxtpx:hr><gpxtpx:cad>84</gpxtpx:cad></gpxtpx:TrackPointExtension></extensions></trkpt>
<trkpt lat="45.002930" lon="5.015174"><ele>214.3</ele><time>2026-05-17T07:31:35Z</time><extensions><gpxtpx:TrackPointExtension><gpxtpx:hr>159</gpxtpx:hr><gpxtpx:cad>84</gpxtpx:cad></gpxtpx:TrackPointExtension></extensions></trkpt>
<trkpt lat="45.003078" lon="5.015210"><ele>215.0</ele><time>2026-05-17T07:31:40Z</time><extensions><gpxtpx:TrackPointExtension><gpxtpx:hr>140</gpxtpx:hr><gpxtpx:cad>84</gpxtpx:cad></gpxtpx:TrackPointExtension></extensions></trkpt>
<trkpt lat="45.003225" lon="5.015234"><ele>215.7</ele><time>2026-05-17T07:31:45Z</time><extensions><gpxtpx:TrackPointExtension><gpxtpx:hr>141</gpxtpx:hr><gpxtpx:cad>84</gpxtpx:cad></gpxtpx:TrackPointExtension></extensions></trkpt>
<trkpt lat="45.003371" lon="5.015244"><ele>216.3</ele><time>2026-05-17T07:31:50Z</time><extensions><gpxtpx:TrackPointExtension><gpxtpx:hr>142</gpxtpx:hr><gpxtpx:cad>84</gpxtpx:cad></gpxtpx:TrackPointExtension></extensions></trkpt>
<trkpt lat="45.003517" lon="5.015241"><ele>217.0</ele><time>2026-05-17T07:31:55Z</time><extensions><gpxtpx:TrackPointExtension><gpxtpx:hr>143</gpxtpx:hr><gpxtpx:cad>84</gpxtpx:cad></gpxtpx:TrackPointExtension></extensions></trkpt>
<trkpt lat="45.003661" lon="5.015224"><ele>217.6</ele><time>2026-05-17T07:32:00Z</time><extensions><gpxtpx:TrackPointExtension><gpxtpx:hr>144</gpxtpx:hr><gpxtpx:cad>84</gpxtpx:cad></gpxtpx:TrackPointExtension></extensions></trkpt>
<trkpt lat="45.003804" lon="5.015193"><ele>218.2</ele><time>2026-05-17T07:32:05Z</time><extensions><gpxtpx:TrackPointExtension><gpxtpx:hr>145</gpxtpx:hr><gpxtpx:cad>84</gpxtpx:cad></gpxtpx:TrackPointExtension></extensions></trkpt>
<trkpt lat="45.003945" lon="5.015148"><ele>218.8</ele><time>2026-05-17T07:32:10Z</time><extensions><gpxtpx:TrackPointExtension><gpxtpx:hr>146</gpxtpx:hr><gpxtpx:cad>84</gpxtpx:cad></gpxtpx:TrackPointExtension></extensions></trkpt>
<trkpt lat="45.004086" lon="5.015088"><ele>219.4</ele><time>2026-05-17T07:32:15Z</time><extensions><gpxtpx:TrackPointExtension><gpxtpx:hr>147</gpxtpx:hr><gpxtpx:cad>84</gpxtpx:cad></gpxtpx:TrackPointExtension></extensions></trkpt>
<trkpt lat="45.004225" lon="5.015015"><ele>220.0</ele><time>2026-05-17T07:32:20Z</time><extensions><gpxtpx:TrackPointExtension><gpxtpx:hr>148</gpxtpx:hr><gpxtpx:cad>84</gpxtpx:cad></gpxtpx:TrackPointExtension></extensions></trkpt>
<trkpt lat="45.004363" lon="5.014927"><ele>220.6</ele><time>2026-05-17T07:32:25Z</time><extensions><gpxtpx:TrackPointExtension><gpxtpx:hr>149</gpxtpx:hr><gpxtpx:cad>84</gpxtpx:cad></gpxtpx:TrackPointExtension></extensions></trkpt>
<trkpt lat="45.004500" lon="5.014825"><ele>221.2</ele><time>2026-05-17T07:32:30Z</time><extensions><gpxtpx:TrackPointExtension><gpxtpx:hr>150</gpxtpx:hr><gpxtpx:cad>84</gpxtpx:cad></gpxtpx:TrackPointExtension></extensions></trkpt>
<trkpt lat="45.004635" lon="5.014709"><ele>221.7</ele><time>2026-05-17T07:32:35Z</time><extensions><gpxtpx:TrackPointExtension><gpxtpx:hr>151</gpxtpx:hr><gpxtpx:cad>84</gpxtpx:cad></gpxtpx:TrackPointExtension></extensions></trkpt>
<trkpt lat="45.004769" lon="5.014579"><ele>222.2</ele><time>2026-05-17T07:32:40Z</time><extensions><gpxtpx:TrackPointExtension><gpxtpx:hr>152</gpxtpx:hr><gpxtpx:cad>84</gpxtpx:cad></gpxtpx:TrackPointExtension></extensions></trkpt>
<trkpt lat="45.004902" lon="5.014434"><ele>222.8</ele><time>2026-05-17T07:32:45Z</time><extensions><gpxtpx:TrackPointExtension><gpxtpx:hr>153</gpxtpx:hr><gpxtpx:cad>84</gpxtpx:cad></gpxtpx:TrackPointExtension></extensions></trkpt>
<trkpt lat="45.005033" lon="5.014276"><ele>223.3</ele><time>2026-05-17T07:32:50Z</time><extensions><gpxtpx:TrackPointExtension><gpxtpx:hr>154</gpxtpx:hr><gpxtpx:cad>84</gpxtpx:cad></gpxtpx:TrackPointExtension></extensions></trkpt>
<trkpt lat="45.005162" lon="5.014103"><ele>223.7</ele><time>2026-05-17T07:32:55Z</time><extensions><gpxtpx:TrackPointExtension><gpxtpx:hr>155</gpxtpx:hr><gpxtpx:cad>84</gpxtpx:cad></gpxtpx:TrackPointExtension></extensions></trkpt>
<trkpt lat="45.005290" lon="5.013917"><ele>224.2</ele><time>2026-05-17T07:33:00Z</time><extensions><gpxtpx:TrackPointExtension><gpxtpx:hr>156</gpxtpx:hr><gpxtpx:cad>84</gpxtpx:cad></gpxtpx:TrackPointExtension></extensions></trkpt>
<trkpt lat="45.005416" lon="5.013717"><ele>224.7</ele><time>2026-05-17T07:33:05Z</time><extensions><gpxtpx:TrackPointExtension><gpxtpx:hr>157</gpxtpx:hr><gpxtpx:cad>84</gpxtpx:cad></gpxtpx:TrackPointExtension></extensions></trkpt>
<trkpt lat="45.005541" lon="5.013504"><ele>225.1</ele><time>2026-05-17T07:33:10Z</time><extensions><gpxtpx:TrackPointExtension><gpxtpx:hr>158</gpxtpx:hr><gpxtpx:cad>84</gpxtpx:cad></gpxtpx:TrackPointExtension></extensions></trkpt>
<trkpt lat="45.005664" lon="5.013278"><ele>225.5</ele><time>2026-05-17T07:33:15Z</time><extensions><gpxtpx:TrackPointExtension><gpxtpx:hr>159</gpxtpx:hr><gpxtpx:cad>84</gpxtpx:cad></gpxtpx:TrackPointExtension></extensions></trkpt>
<trkpt lat="45.005785" lon="5.013040"><ele>225.9</ele><time>2026-05-17T07:33:20Z</time><extensions><gpxtpx:TrackPointExtension><gpxtpx:hr>140</gpxtpx:hr><gpxtpx:cad>84</gpxtpx:cad></gpxtpx:TrackPointExtension></extensions></trkpt>
<trkpt lat="45.005905" lon="5.012789"><ele>226.3</ele><time>2026-05-17T07:33:25Z</time><extensions><gpxtpx:TrackPointExtension><gpxtpx:hr>141</gpxtpx:hr><gpxtpx:cad>84</gpxtpx:cad></gpxtpx:TrackPointExtension></extensions></trkpt>
<trkpt lat="45.006022" lon="5.012525"><ele>226.7</ele><time>2026-05-17T07:33:30Z</time><extensions><gpxtpx:TrackPointExtension><gpxtpx:hr>142</gpxtpx:hr><gpxtpx:cad>84</gpxtpx:cad></gpxtpx:TrackPointExtension></extensions></trkpt>
<trkpt lat="45.006138" lon="5.012251"><ele>227.0</ele><time>2026-05-17T07:33:35Z</time><extensions><gpxtpx:TrackPointExtension><gpxtpx:hr>143</gpxtpx:hr><gpxtpx:cad>84</gpxtpx:cad></gpxtpx:TrackPointExtension></extensions></trkpt>
<trkpt lat="45.006252" lon="5.011964"><ele>227.4</ele><time>2026-05-17T07:33:40Z</time><extensions><gpxtpx:TrackPointExtension><gpxtpx:hr>144</gpxtpx:hr><gpxtpx:cad>84</gpxtpx:cad></gpxtpx:TrackPointExtension></extensions></trkpt>
<trkpt lat="45.006364" lon="5.011667"><ele>227.7</ele><time>2026-05-17T07:33:45Z</time><extensions><gpxtpx:TrackPointExtension><gpxtpx:hr>145</gpxtpx:hr><gpxtpx:cad>84</gpxtpx:cad></gpxtpx:TrackPointExtension></extensions></trkpt>
<trkpt lat="45.006474" lon="5.011360"><ele>228.0</ele><time>2026-05-17T07:33:50Z</time><extensions><gpxtpx:TrackPointExtension><gpxtpx:hr>146</gpxtpx:hr><gpxtpx:cad>84</gpxtpx:cad></gpxtpx:TrackPointExtension></extensions></trkpt>
<trkpt lat="45.006582" lon="5.011042"><ele>228.3</ele><time>2026-05-17T07:33:55Z</time><extensions><gpxtpx:TrackPointExtension><gpxtpx:hr>147</gpxtpx:hr><gpxtpx:cad>84</gpxtpx:cad></gpxtpx:TrackPointExtension></extensions></trkpt>
<trkpt lat="45.006688" lon="5.010715"><ele>228.5</ele><time>2026-05-17T07:34:00Z</time><extensions><gpxtpx:TrackPointExtension><gpxtpx:hr>148</gpxtpx:hr><gpxtpx:cad>84</gpxtpx:cad></gpxtpx:TrackPointExtension></extensions></trkpt>
<trkpt lat="45.006792" lon="5.010379"><ele>228.8</ele><time>2026-05-17T07:34:05Z</time><extensions><gpxtpx:TrackPointExtension><gpxtpx:hr>149</gpxtpx:hr><gpxtpx:cad>84</gpxtpx:cad></gpxtpx:TrackPointExtension></extensions></trkpt>
<trkpt lat="45.006894" lon="5.010035"><ele>229.0</ele><time>2026-05-17T07:34:10Z</time><extensions><gpxtpx:TrackPointExtension><gpxtpx:hr>150</gpxtpx:hr><gpxtpx:cad>84</gpxtpx:cad></gpxtpx:TrackPointExtension></extensions></trkpt>
<trkpt lat="45.006994" lon="5.009682"><ele>229.2</ele><time>2026-05-17T07:34:15Z</time><extensions><gpxtpx:TrackPointExtension><gpxtpx:hr>151</gpxtpx:hr><gpxtpx:cad>84</gpxtpx:cad></gpxtpx:TrackPointExtension></extensions></trkpt>
<trkpt lat="45.007092" lon="5.009323"><ele>229.4</ele><time>2026-05-17T07:34:20Z</time><extensions><gpxtpx:TrackPointExtension><gpxtpx:hr>152</gpxtpx:hr><gpxtpx:cad>84</gpxtpx:cad></gpxtpx:TrackPointExtension></extensions></trkpt>
<trkpt lat="45.007188" lon="5.008956"><ele>229.6</ele><time>2026-05-17T07:34:25Z</time><extensions><gpxtpx:TrackPointExtension><gpxtpx:hr>153</gpxtpx:hr><gpxtpx:cad>84</gpxtpx:cad></gpxtpx:TrackPointExtension></extensions></trkpt>
<trkpt lat="45.007281" lon="5.008583"><ele>229.7</ele><time>2026-05-17T07:34:30Z</time><extensions><gpxtpx:TrackPointExtension><gpxtpx:hr>154</gpxtpx:hr><gpxtpx:cad>84</gpxtpx:cad></gpxtpx:TrackPointExtension></extensions></trkpt>
<trkpt lat="45.007372" lon="5.008205"><ele>229.9</ele><time>2026-05-17T07:34:35Z</time><extensions><gpxtpx:TrackPointExtension><gpxtpx:hr>155</gpxtpx:hr><gpxtpx:cad>84</gpxtpx:cad></gpxtpx:TrackPointExtension></extensions></trkpt>
<trkpt lat="45.007461" lon="5.007822"><ele>230.0</ele><time>2026-05-17T07:34:40Z</time><extensions><gpxtpx:TrackPointExtension><gpxtpx:hr>156</gpxtpx:hr><gpxtpx:cad>84</gpxtpx:cad></gpxtpx:TrackPointExtension></extensions></trkpt>
<trkpt lat="45.007548" lon="5.007434"><ele>230.1</ele><time>2026-05-17T07:34:45Z</time><extensions><gpxtpx:TrackPointExtension><gpxtpx:hr>157</gpxtpx:hr><gpxtpx:cad>84</gpxtpx:cad></gpxtpx:TrackPointExtension></extensions></trkpt>
<trkpt lat="45.007632" lon="5.007042"><ele>230.2</ele><time>2026-05-17T07:34:50Z</time><extensions><gpxtpx:TrackPointExtension><gpxtpx:hr>158</gpxtpx:hr><gpxtpx:cad>84</gpxtpx:cad></gpxtpx:TrackPointExtension></extensions></trkpt>
<trkpt lat="45.007715" lon="5.006647"><ele>230.3</ele><time>2026-05-17T07:34:55Z</time><extensions><gpxtpx:TrackPointExtension><gpxtpx:hr>159</gpxtpx:hr><gpxtpx:cad>84</gpxtpx:cad></gpxtpx:TrackPointExtension></extensions></trkpt>
<trkpt lat="45.007794" lon="5.006250"><ele>230.3</ele><time>2026-05-17T07:35:00Z</time><extensions><gpxtpx:TrackPointExtension><gpxtpx:hr>140</gpxtpx:hr><gpxtpx:cad>84</gpxtpx:cad></gpxtpx:TrackPointExtension></extensions></trkpt>
<trkpt lat="45.007872" lon="5.005851"><ele>230.3</ele><time>2026-05-17T07:35:05Z</time><extensions><gpxtpx:TrackPointExtension><gpxtpx:hr>141</gpxtpx:hr><gpxtpx:cad>84</gpxtpx:cad></gpxtpx:TrackPointExtension></extensions></trkpt>
<trkpt lat="45.007947" lon="5.005450"><ele>230.4</ele><time>2026-05-17T07:35:10Z</time><extensions><gpxtpx:TrackPointExtension><gpxtpx:hr>142</gpxtpx:hr><gpxtpx:cad>84</gpxtpx:cad></gpxtpx:TrackPointExtension></extensions></trkpt>
<trkpt lat="45.008019" lon="5.005049"><ele>230.4</ele><time>2026-05-17T07:35:15Z</time><extensions><gpxtpx:TrackPointExtension><gpxtpx:hr>143</gpxtpx:hr><gpxtpx:cad>84</gpxtpx:cad></gpxtpx:TrackPointExtension></extensions></trkpt>
<trkpt lat="45.008089" lon="5.004648"><ele>230.3</ele><time>2026-05-17T07:35:20Z</time><extensions><gpxtpx:TrackPointExtension><gpxtpx:hr>144</gpxtpx:hr><gpxtpx:cad>84</gpxtpx:cad></gpxtpx:TrackPointExtension></extensions></trkpt>
<trkpt lat="45.008157" lon="5.004247"><ele>230.3</ele><time>2026-05-17T07:35:25Z</time><extensions><gpxtpx:TrackPointExtension><gpxtpx:hr>145</gpxtpx:hr><gpxtpx:cad>84</gpxtpx:cad></gpxtpx:TrackPointExtension></extensions></trkpt>
<trkpt lat="45.008222" lon="5.003848"><ele>230.3</ele><time>2026-05-17T07:35:30Z</time><extensions><gpxtpx:TrackPointExtension><gpxtpx:hr>146</gpxtpx:hr><gpxtpx:cad>84</gpxtpx:cad></gpxtpx:TrackPointExtension></extensions></trkpt>
<trkpt lat="45.008285" lon="5.003451"><ele>230.2</ele><time>2026-05-17T07:35:35Z</time><extensions><gpxtpx:TrackPointExtension><gpxtpx:hr>147</gpxtpx:hr><gpxtpx:cad>84</gpxtpx:cad></gpxtpx:TrackPointExtension></extensions></trkpt>
<trkpt lat="45.008345" lon="5.003056"><ele>230.1</ele><time>2026-05-17T07:35:40Z</time><extensions><gpxtpx:TrackPointExtension><gpxtpx:hr>148</gpxtpx:hr><gpxtpx:cad>84</gpxtpx:cad></gpxtpx:TrackPointExtension></extensions></trkpt>
<trkpt lat="45.008402" lon="5.002664"><ele>230.0</ele><time>2026-05-17T07:35:45Z</time><extensions><gpxtpx:TrackPointExtension><gpxtpx:hr>149</gpxtpx:hr><gpxtpx:cad>84</gpxtpx:cad></gpxtpx:TrackPointExtension></extensions></trkpt>
<trkpt lat="45.008457" lon="5.002275"><ele>229.9</ele><time>2026-05-17T07:35:50Z</time><extensions><gpxtpx:TrackPointExtension><gpxtpx:hr>150</gpxtpx:hr><gpxtpx:cad>84</gpxtpx:cad></gpxtpx:TrackPointExtension></extensions></trkpt>
<trkpt lat="45.008510" lon="5.001891"><ele>229.8</ele><time>2026-05-17T07:35:55Z</time><extensions><gpxtpx:TrackPointExtension><gpxtpx:hr>151</gpxtpx:hr><gpxtpx:cad>84</gpxtpx:cad></gpxtpx:TrackPointExtension></extensions></trkpt>
<trkpt lat="45.008560" lon="5.001512"><ele>229.7</ele><time>2026-05-17T07:36:00Z</time><extensions><gpxtpx:TrackPointExtension><gpxtpx:hr>152</gpxtpx:hr><gpxtpx:cad>84</gpxtpx:cad></gpxtpx:TrackPointExtension></extensions></trkpt>
<trkpt lat="45.008607" lon="5.001137"><ele>229.5</ele><time>2026-05-17T07:36:05Z</time><extensions><gpxtpx:TrackPointExtension><gpxtpx:hr>153</gpxtpx:hr><gpxtpx:cad>84</gpxtpx:cad></gpxtpx:TrackPointExtension></extensions></trkpt>
<trkpt lat="45.008651" lon="5.000769"><ele>229.3</ele><time>2026-05-17T07:36:10Z</time><extensions><gpxtpx:TrackPointExtension><gpxtpx:hr>154</gpxtpx:hr><gpxtpx:cad>84</gpxtpx:cad></gpxtpx:TrackPointExtension></extensions></trkpt>
<trkpt lat="45.008693" lon="5.000407"><ele>229.1</ele><time>2026-05-17T07:36:15Z</time><extensions><gpxtpx:TrackPointExtension><gpxtpx:hr>155</gpxtpx:hr><gpxtpx:cad>84</gpxtpx:cad></gpxtpx:TrackPointExtension></extensions></trkpt>
<trkpt lat="45.008733" lon="5.000051"><ele>229.0</ele><time>2026-05-17T07:36:20Z</time><extensions><gpxtpx:TrackPointExtension><gpxtpx:hr>156</gpxtpx:hr><gpxtpx:cad>84</gpxtpx:cad></gpxtpx:TrackPointExtension></extensions></trkpt>
<trkpt lat="45.008769" lon="4.999703"><ele>228.7</ele><time>2026-05-17T07:36:25Z</time><extensions><gpxtpx:TrackPointExtension><gpxtpx:hr>157</gpxtpx:hr><gpxtpx:cad>84</gpxtpx:cad></gpxtpx:TrackPointExtension></extensions></trkpt>
<trkpt lat="45.008803" lon="4.999363"><ele>228.5</ele><time>2026-05-17T07:36:30Z</time><extensions><gpxtpx:TrackPointExtension><gpxtpx:hr>158</gpxtpx:hr><gpxtpx:cad>84</gpxtpx:cad></gpxtpx:TrackPointExtension></extensions></trkpt>
<trkpt lat="45.008835" lon="4.999030"><ele>228.3</ele><time>2026-05-17T07:36:35Z</time><extensions><gpxtpx:TrackPointExtension><gpxtpx:hr>159</gpxtpx:hr><gpxtpx:cad>84</gpxtpx:cad></gpxtpx:TrackPointExtension></extensions></trkpt>
<trkpt lat="45.008863" lon="4.998707"><ele>228.0</ele><time>2026-05-17T07:36:40Z</time><extensions><gpxtpx:TrackPointExtension><gpxtpx:hr>140</gpxtpx:hr><gpxtpx:cad>84</gpxtpx:cad></gpxtpx:TrackPointExtension></extensions></trkpt>
<trkpt lat="45.008889" lon="4.998391"><ele>227.8</ele><time>2026-05-17T07:36:45Z</time><extensions><gpxtpx:TrackPointExtension><gpxtpx:hr>141</gpxtpx:hr><gpxtpx:cad>84</gpxtpx:cad></gpxtpx:TrackPointExtension></extensions></trkpt>
<trkpt lat="45.008912" lon="4.998085"><ele>227.5</ele><time>2026-05-17T07:36:50Z</time><extensions><gpxtpx:TrackPointExtension><gpxtpx:hr>142</gpxtpx:hr><gpxtpx:cad>84</gpxtpx:cad></gpxtpx:TrackPointExtension></extensions></trkpt>
<trkpt lat="45.008933" lon="4.997789"><ele>227.2</ele><time>2026-05-17T07:36:55Z</time><extensions><gpxtpx:TrackPointExtension><gpxtpx:hr>143</gpxtpx:hr><gpxtpx:cad>84</gpxtpx:cad></gpxtpx:TrackPointExtension></extensions></trkpt>
<trkpt lat="45.008951" lon="4.997502"><ele>226.9</ele><time>2026-05-17T07:37:00Z</time><extensions><gpxtpx:TrackPointExtension><gpxtpx:hr>144</gpxtpx:hr><gpxtpx:cad>84</gpxtpx:cad></gpxtpx:TrackPointExtension></extensions></trkpt>
<trkpt lat="45.008966" lon="4.997226"><ele>226.6</ele><time>2026-05-17T07:37:05Z</time><extensions><gpxtpx:TrackPointExtension><gpxtpx:hr>145</gpxtpx:hr><gpxtpx:cad>84</gpxtpx:cad></gpxtpx:TrackPointExtension></extensions></trkpt>
<trkpt lat="45.008978" lon="4.996959"><ele>226.3</ele><time>2026-05-17T07:37:10Z</time><extensions><gpxtpx:TrackPointExtension><gpxtpx:hr>146</gpxtpx:hr><gpxtpx:cad>84</gpxtpx:cad></gpxtpx:TrackPointExtension></extensions></trkpt>
<trkpt lat="45.008988" lon="4.996703"><ele>226.0</ele><time>2026-05-17T07:37:15Z</time><extensions><gpxtpx:TrackPointExtension><gpxtpx:hr>147</gpxtpx:hr><gpxtpx:cad>84</gpxtpx:cad></gpxtpx:TrackPointExtension></extensions></trkpt>
<trkpt lat="45.008995" lon="4.996458"><ele>225.7</ele><time>2026-05-17T07:37:20Z</time><extensions><gpxtpx:TrackPointExtension><gpxtpx:hr>148</gpxtpx:hr><gpxtpx:cad>84</gpxtpx:cad></gpxtpx:TrackPointExtension></extensions></trkpt>
<trkpt lat="45.008999" lon="4.996224"><ele>225.3</ele><time>2026-05-17T07:37:25Z</time><extensions><gpxtpx:TrackPointExtension><gpxtpx:hr>149</gpxtpx:hr><gpxtpx:cad>84</gpxtpx:cad></gpxtpx:TrackPointExtension></extensions></trkpt>
<trkpt lat="45.009000" lon="4.996000"><ele>225.0</ele><time>2026-05-17T07:37:30Z</time><extensions><gpxtpx:TrackPointExtension><gpxtpx:hr>150</gpxtpx:hr><gpxtpx:cad>84</gpxtpx:cad></gpxtpx:TrackPointExtension></extensions></trkpt>
<trkpt lat="45.008999" lon="4.995787"><ele>224.6</ele><time>2026-05-17T07:37:35Z</time><extensions><gpxtpx:TrackPointExtension><gpxtpx:hr>151</gpxtpx:hr><gpxtpx:cad>84</gpxtpx:cad></gpxtpx:TrackPointExtension></extensions></trkpt>
<trkpt lat="45.008995" lon="4.995586"><ele>224.3</ele><time>2026-05-17T07:37:40Z</time><extensions><gpxtpx:TrackPointExtension><gpxtpx:hr>152</gpxtpx:hr><gpxtpx:cad>84</gpxtpx:cad></gpxtpx:TrackPointExtension></extensions></trkpt>
<trkpt lat="45.008988" lon="4.995395"><ele>223.9</ele><time>2026-05-17T07:37:45Z</time><extensions><gpxtpx:TrackPointExtension><gpxtpx:hr>153</gpxtpx:hr><gpxtpx:cad>84</gpxtpx:cad></gpxtpx:TrackPointExtension></extensions></trkpt>
<trkpt lat="45.008978" lon="4.995215"><ele>223.5</ele><time>2026-05-17T07:37:50Z</time><extensions><gpxtpx:TrackPointExtension><gpxtpx:hr>154</gpxtpx:hr><gpxtpx:cad>84</gpxtpx:cad></gpxtpx:TrackPointExtension></extensions></trkpt>
<trkpt lat="45.008966" lon="4.995047"><ele>223.2</ele><time>2026-05-17T07:37:55Z</time><extensions><gpxtpx:TrackPointExtension><gpxtpx:hr>155</gpxtpx:hr><gpxtpx:cad>84</gpxtpx:cad></gpxtpx:TrackPointExtension></extensions></trkpt>
<trkpt lat="45.008951" lon="4.994889"><ele>222.8</ele><time>2026-05-17T07:38:00Z</time><extensions><gpxtpx:TrackPointExtension><gpxtpx:hr>156</gpxtpx:hr><gpxtpx:cad>84</gpxtpx:cad></gpxtpx:TrackPointExtension></extensions></trkpt>
<trkpt lat="45.008933" lon="4.994742"><ele>222.4</ele><time>2026-05-17T07:38:05Z</time><extensions><gpxtpx:TrackPointExtension><gpxtpx:hr>157</gpxtpx:hr><gpxtpx:cad>84</gpxtpx:cad></gpxtpx:TrackPointExtension></extensions></trkpt>
<trkpt lat="45.008912" lon="4.994606"><ele>222.0</ele><time>2026-05-17T07:38:10Z</time><extensions><gpxtpx:TrackPointExtension><gpxtpx:hr>158</gpxtpx:hr><gpxtpx:cad>84</gpxtpx:cad></gpxtpx:TrackPointExtension></extensions></trkpt>
<trkpt lat="45.008889" lon="4.994481"><ele>221.6</ele><time>2026-05-17T07:38:15Z</time><extensions><gpxtpx:TrackPointExtension><gpxtpx:hr>159</gpxtpx:hr><gpxtpx:cad>84</gpxtpx:cad></gpxtpx:TrackPointExtension></extensions></trkpt>
<trkpt lat="45.008863" lon="4.994365"><ele>221.2</ele><time>2026-05-17T07:38:20Z</time><extensions><gpxtpx:TrackPointExtension><gpxtpx:hr>140</gpxtpx:hr><gpxtpx:cad>84</gpxtpx:cad></gpxtpx:TrackPointExtension></extensions></trkpt>
<trkpt lat="45.008835" lon="4.994260"><ele>220.8</ele><time>2026-05-17T07:38:25Z</time><extensions><gpxtpx:TrackPointExtension><gpxtpx:hr>141</gpxtpx:hr><gpxtpx:cad>84</gpxtpx:cad></gpxtpx:TrackPointExtension></extensions></trkpt>
<trkpt lat="45.008803" lon="4.994165"><ele>220.4</ele><time>2026-05-17T07:38:30Z</time><extensions><gpxtpx:TrackPointExtension><gpxtpx:hr>142</gpxtpx:hr><gpxtpx:cad>84</gpxtpx:cad></gpxtpx:TrackPointExtension></extensions></trkpt>
<trkpt lat="45.008769" lon="4.994080"><ele>220.0</ele><time>2026-05-17T07:38:35Z</time><extensions><gpxtpx:TrackPointExtension><gpxtpx:hr>143</gpxtpx:hr><gpxtpx:cad>84</gpxtpx:cad></gpxtpx:TrackPointExtension></extensions></trkpt>
<trkpt lat="45.008733" lon="4.994003"><ele>219.6</ele><time>2026-05-17T07:38:40Z</time><extensions><gpxtpx:TrackPointExtension><gpxtpx:hr>144</gpxtpx:hr><gpxtpx:cad>84</gpxtpx:cad></gpxtpx:TrackPointExtension></extensions></trkpt>
<trkpt lat="45.008693" lon="4.993936"><ele>219.1</ele><time>2026-05-17T07:38:45Z</time><extensions><gpxtpx:TrackPointExtension><gpxtpx:hr>145</gpxtpx:hr><gpxtpx:cad>84</gpxtpx:cad></gpxtpx:TrackPointExtension></extensions></trkpt>
<trkpt lat="45.008651" lon="4.993878"><ele>218.7</ele><time>2026-05-17T07:38:50Z</time><extensions><gpxtpx:TrackPointExtension><gpxtpx:hr>146</gpxtpx:hr><gpxtpx:cad>84</gpxtpx:cad></gpxtpx:TrackPointExtension></extensions></trkpt>
<trkpt lat="45.008607" lon="4.993828"><ele>218.3</ele><time>2026-05-17T07:38:55Z</time><extensions><gpxtpx:TrackPointExtension><gpxtpx:hr>147</gpxtpx:hr><gpxtpx:cad>84</gpxtpx:cad></gpxtpx:TrackPointExtension></extensions></trkpt>
<trkpt lat="45.008560" lon="4.993786"><ele>217.9</ele><time>2026-05-17T07:39:00Z</time><extensions><gpxtpx:TrackPointExtension><gpxtpx:hr>148</gpxtpx:hr><gpxtpx:cad>84</gpxtpx:cad></gpxtpx:TrackPointExtension></extensions></trkpt>
<trkpt lat="45.008510" lon="4.993752"><ele>217.5</ele><time>2026-05-17T07:39:05Z</time><extensions><gpxtpx:TrackPointExtension><gpxtpx:hr>149</gpxtpx:hr><gpxtpx:cad>84</gpxtpx:cad></gpxtpx:TrackPointExtension></extensions></trkpt>
<trkpt lat="45.008457" lon="4.993725"><ele>217.1</ele><time>2026-05-17T07:39:10Z</time><extensions><gpxtpx:TrackPointExtension><gpxtpx:hr>150</gpxtpx:hr><gpxtpx:cad>84</gpxtpx:cad></gpxtpx:TrackPointExtension></extensions></trkpt>
<trkpt lat="45.008402" lon="4.993704"><ele>216.6</ele><time>2026-05-17T07:39:15Z</time><extensions><gpxtpx:TrackPointExtension><gpxtpx:hr>151</gpxtpx:hr><gpxtpx:cad>84</gpxtpx:cad></gpxtpx:TrackPointExtension></extensions></trkpt>
<trkpt lat="45.008345" lon="4.993690"><ele>216.2</ele><time>2026-05-17T07:39:20Z</time><extensions><gpxtpx:TrackPointExtension><gpxtpx:hr>152</gpxtpx:hr><gpxtpx:cad>84</gpxtpx:cad></gpxtpx:TrackPointExtension></extensions></trkpt>
<trkpt lat="45.008285" lon="4.993682"><ele>215.8</ele><time>2026-05-17T07:39:25Z</time><extensions><gpxtpx:TrackPointExtension><gpxtpx:hr>153</gpxtpx:hr><gpxtpx:cad>84</gpxtpx:cad></gpxtpx:TrackPointExtension></extensions></trkpt>
<trkpt lat="45.008222" lon="4.993680"><ele>215.4</ele><time>2026-05-17T07:39:30Z</time><extensions><gpxtpx:TrackPointExtension><gpxtpx:hr>154</gpxtpx:hr><gpxtpx:cad>84</gpxtpx:cad></gpxtpx:TrackPointExtension></extensions></trkpt>
<trkpt lat="45.008157" lon="4.993682"><ele>215.0</ele><time>2026-05-17T07:39:35Z</time><extensions><gpxtpx:TrackPointExtension><gpxtpx:hr>155</gpxtpx:hr><gpxtpx:cad>84</gpxtpx:cad></gpxtpx:TrackPointExtension></extensions></trkpt>
<trkpt lat="45.008089" lon="4.993689"><ele>214.6</ele><time>2026-05-17T07:39:40Z</time><extensions><gpxtpx:TrackPointExtension><gpxtpx:hr>156</gpxtpx:hr><gpxtpx:cad>84</gpxtpx:cad></gpxtpx:TrackPointExtension></extensions></trkpt>
<trkpt lat="45.008019" lon="4.993699"><ele>214.2</ele><time>2026-05-17T07:39:45Z</time><extensions><gpxtpx:TrackPointExtension><gpxtpx:hr>157</gpxtpx:hr><gpxtpx:cad>84</gpxtpx:cad></gpxtpx:TrackPointExtension></extensions></trkpt>
<trkpt lat="45.007947" lon="4.993713"><ele>213.8</ele><time>2026-05-17T07:39:50Z</time><extensions><gpxtpx:TrackPointExtension><gpxtpx:hr>158</gpxtpx:hr><gpxtpx:cad>84</gpxtpx:cad></gpxtpx:TrackPointExtension></extensions></trkpt>
<trkpt lat="45.007872" lon="4.993731"><ele>213.4</ele><time>2026-05-17T07:39:55Z</time><extensions><gpxtpx:TrackPointExtension><gpxtpx:hr>159</gpxtpx:hr><gpxtpx:cad>84</gpxtpx:cad></gpxtpx:TrackPointExtension></extensions></trkpt>
<trkpt lat="45.007794" lon="4.993750"><ele>213.0</ele><time>2026-05-17T07:40:00Z</time><extensions><gpxtpx:TrackPointExtension><gpxtpx:hr>140</gpxtpx:hr><gpxtpx:cad>84</gpxtpx:cad></gpxtpx:TrackPointExtension></extensions></trkpt>
<trkpt lat="45.007715" lon="4.993771"><ele>212.6</ele><time>2026-05-17T07:40:05Z</time><extensions><gpxtpx:TrackPointExtension><gpxtpx:hr>141</gpxtpx:hr><gpxtpx:cad>84</gpxtpx:cad></gpxtpx:TrackPointExtension></extensions></trkpt>
<trkpt lat="45.007632" lon="4.993794"><ele>212.2</ele><time>2026-05-17T07:40:10Z</time><extensions><gpxtpx:TrackPointExtension><gpxtpx:hr>142</gpxtpx:hr><gpxtpx:cad>84</gpxtpx:cad></gpxtpx:TrackPointExtension></extensions></trkpt>
<trkpt lat="45.007548" lon="4.993818"><ele>211.8</ele><time>2026-05-17T07:40:15Z</time><extensions><gpxtpx:TrackPointExtension><gpxtpx:hr>143</gpxtpx:hr><gpxtpx:cad>84</gpxtpx:cad></gpxtpx:TrackPointExtension></extensions></trkpt>
<trkpt lat="45.007461" lon="4.993842"><ele>211.5</ele><time>2026-05-17T07:40:20Z</time><extensions><gpxtpx:TrackPointExtension><gpxtpx:hr>144</gpxtpx:hr><gpxtpx:cad>84</gpxtpx:cad></gpxtpx:TrackPointExtension></extensions></trkpt>
<trkpt lat="45.007372" lon="4.993866"><ele>211.1</ele><time>2026-05-17T07:40:25Z</time><extensions><gpxtpx:TrackPointExtension><gpxtpx:hr>145</gpxtpx:hr><gpxtpx:cad>84</gpxtpx:cad></gpxtpx:TrackPointExtension></extensions></trkpt>
<trkpt lat="45.007281" lon="4.993889"><ele>210.7</ele><time>2026-05-17T07:40:30Z</time><extensions><gpxtpx:TrackPointExtension><gpxtpx:hr>146</gpxtpx:hr><gpxtpx:cad>84</gpxtpx:cad></gpxtpx:TrackPointExtension></extensions></trkpt>
<trkpt lat="45.007188" lon="4.993911"><ele>210.4</ele><time>2026-05-17T07:40:35Z</time><extensions><gpxtpx:TrackPointExtension><gpxtpx:hr>147</gpxtpx:hr><gpxtpx:cad>84</gpxtpx:cad></gpxtpx:TrackPointExtension></extensions></trkpt>
<trkpt lat="45.007092" lon="4.993931"><ele>210.0</ele><time>2026-05-17T07:40:40Z</time><extensions><gpxtpx:TrackPointExtension><gpxtpx:hr>148</gpxtpx:hr><gpxtpx:cad>84</gpxtpx:cad></gpxtpx:TrackPointExtension></extensions></trkpt>
<trkpt lat="45.006994" lon="4.993949"><ele>209.6</ele><time>2026-05-17T07:40:45Z</time><extensions><gpxtpx:TrackPointExtension><gpxtpx:hr>149</gpxtpx:hr><gpxtpx:cad>84</gpxtpx:cad></gpxtpx:TrackPointExtension></extensions></trkpt>
<trkpt lat="45.006894" lon="4.993965"><ele>209.3</ele><time>2026-05-17T07:40:50Z</time><extensions><gpxtpx:TrackPointExtension><gpxtpx:hr>150</gpxtpx:hr><gpxtpx:cad>84</gpxtpx:cad></gpxtpx:TrackPointExtension></extensions></trkpt>
<trkpt lat="45.006792" lon="4.993978"><ele>209.0</ele><time>2026-05-17T07:40:55Z</time><extensions><gpxtpx:TrackPointExtension><gpxtpx:hr>151</gpxtpx:hr><gpxtpx:cad>84</gpxtpx:cad></gpxtpx:TrackPointExtension></extensions></trkpt>
<trkpt lat="45.006688" lon="4.993987"><ele>208.6</ele><time>2026-05-17T07:41:00Z</time><extensions><gpxtpx:TrackPointExtension><gpxtpx:hr>152</gpxtpx:hr><gpxtpx:cad>84</gpxtpx:cad></gpxtpx:TrackPointExtension></extensions></trkpt>
<trkpt lat="45.006582" lon="4.993992"><ele>208.3</ele><time>2026-05-17T07:41:05Z</time><extensions><gpxtpx:TrackPointExtension><gpxtpx:hr>153</gpxtpx:hr><gpxtpx:cad>84</gpxtpx:cad></gpxtpx:TrackPointExtension></extensions></trkpt>
<trkpt lat="45.006474" lon="4.993993"><ele>208.0</ele><time>2026-05-17T07:41:10Z</time><extensions><gpxtpx:TrackPointExtension><gpxtpx:hr>154</gpxtpx:hr><gpxtpx:cad>84</gpxtpx:cad></gpxtpx:TrackPointExtension></extensions></trkpt>
<trkpt lat="45.006364" lon="4.993990"><ele>207.7</ele><time>2026-05-17T07:41:15Z</time><extensions><gpxtpx:TrackPointExtension><gpxtpx:hr>155</gpxtpx:hr><gpxtpx:cad>84</gpxtpx:cad></gpxtpx:TrackPointExtension></extensions></trkpt>
<trkpt lat="45.006252" lon="4.993981"><ele>207.4</ele><time>2026-05-17T07:41:20Z</time><extensions><gpxtpx:TrackPointExtension><gpxtpx:hr>156</gpxtpx:hr><gpxtpx:cad>84</gpxtpx:cad></gpxtpx:TrackPointExtension></extensions></trkpt>
<trkpt lat="45.006138" lon="4.993967"><ele>207.1</ele><time>2026-05-17T07:41:25Z</time><extensions><gpxtpx:TrackPointExtension><gpxtpx:hr>157</gpxtpx:hr><gpxtpx:cad>84</gpxtpx:cad></gpxtpx:TrackPointExtension></extensions></trkpt>
<trkpt lat="45.006022" lon="4.993947"><ele>206.8</ele><time>2026-05-17T07:41:30Z</time><extensions><gpxtpx:TrackPointExtension><gpxtpx:hr>158</gpxtpx:hr><gpxtpx:cad>84</gpxtpx:cad></gpxtpx:TrackPointExtension></extensions></trkpt>
<trkpt lat="45.005905" lon="4.993921"><ele>206.5</ele><time>2026-05-17T07:41:35Z</time><extensions><gpxtpx:TrackPointExtension><gpxtpx:hr>159</gpxtpx:hr><gpxtpx:cad>84</gpxtpx:cad></gpxtpx:TrackPointExtension></extensions></trkpt>
<trkpt lat="45.005785" lon="4.993889"><ele>206.2</ele><time>2026-05-17T07:41:40Z</time><extensions><gpxtpx:TrackPointExtension><gpxtpx:hr>140</gpxtpx:hr><gpxtpx:cad>84</gpxtpx:cad></gpxtpx:TrackPointExtension></extensions></trkpt>
<trkpt lat="45.005664" lon="4.993850"><ele>206.0</ele><time>2026-05-17T07:41:45Z</time><extensions><gpxtpx:TrackPointExtension><gpxtpx:hr>141</gpxtpx:hr><gpxtpx:cad>84</gpxtpx:cad></gpxtpx:TrackPointExtension></extensions></trkpt>
<trkpt lat="45.005541" lon="4.993804"><ele>205.7</ele><time>2026-05-17T07:41:50Z</time><extensions><gpxtpx:TrackPointExtension><gpxtpx:hr>142</gpxtpx:hr><gpxtpx:cad>84</gpxtpx:cad></gpxtpx:TrackPointExtension></extensions></trkpt>
<trkpt lat="45.005416" lon="4.993751"><ele>205.4</ele><time>2026-05-17T07:41:55Z</time><extensions><gpxtpx:TrackPointExtension><gpxtpx:hr>143</gpxtpx:hr><gpxtpx:cad>84</gpxtpx:cad></gpxtpx:TrackPointExtension></extensions></trkpt>
<trkpt lat="45.005290" lon="4.993692"><ele>205.2</ele><time>2026-05-17T07:42:00Z</time><extensions><gpxtpx:TrackPointExtension><gpxtpx:hr>144</gpxtpx:hr><gpxtpx:cad>84</gpxtpx:cad></gpxtpx:TrackPointExtension></extensions></trkpt>
<trkpt lat="45.005162" lon="4.993624"><ele>204.9</ele><time>2026-05-17T07:42:05Z</time><extensions><gpxtpx:TrackPointExtension><gpxtpx:hr>145</gpxtpx:hr><gpxtpx:cad>84</gpxtpx:cad></gpxtpx:TrackPointExtension></extensions></trkpt>
<trkpt lat="45.005033" lon="4.993550"><ele>204.7</ele><time>2026-05-17T07:42:10Z</time><extensions><gpxtpx:TrackPointExtension><gpxtpx:hr>146</gpxtpx:hr><gpxtpx:cad>84</gpxtpx:cad></gpxtpx:TrackPointExtension></extensions></trkpt>
<trkpt lat="45.004902" lon="4.993467"><ele>204.5</ele><time>2026-05-17T07:42:15Z</time><extensions><gpxtpx:TrackPointExtension><gpxtpx:hr>147</gpxtpx:hr><gpxtpx:cad>84</gpxtpx:cad></gpxtpx:TrackPointExtension></extensions></trkpt>
<trkpt lat="45.004769" lon="4.993377"><ele>204.3</ele><time>2026-05-17T07:42:20Z</time><extensions><gpxtpx:TrackPointExtension><gpxtpx:hr>148</gpxtpx:hr><gpxtpx:cad>84</gpxtpx:cad></gpxtpx:TrackPointExtension></extensions></trkpt>
<trkpt lat="45.004635" lon="4.993280"><ele>204.0</ele><time>2026-05-17T07:42:25Z</time><extensions><gpxtpx:TrackPointExtension><gpxtpx:hr>149</gpxtpx:hr><gpxtpx:cad>84</gpxtpx:cad></gpxtpx:TrackPointExtension></extensions></trkpt>
<trkpt lat="45.004500" lon="4.993175"><ele>203.8</ele><time>2026-05-17T07:42:30Z</time><extensions><gpxtpx:TrackPointExtension><gpxtpx:hr>150</gpxtpx:hr><gpxtpx:cad>84</gpxtpx:cad></gpxtpx:TrackPointExtension></extensions></trkpt>
<trkpt lat="45.004363" lon="4.993062"><ele>203.6</ele><time>2026-05-17T07:42:35Z</time><extensions><gpxtpx:TrackPointExtension><gpxtpx:hr>151</gpxtpx:hr><gpxtpx:cad>84</gpxtpx:cad></gpxtpx:TrackPointExtension></extensions></trkpt>
<trkpt lat="45.004225" lon="4.992941"><ele>203.4</ele><time>2026-05-17T07:42:40Z</time><extensions><gpxtpx:TrackPointExtension><gpxtpx:hr>152</gpxtpx:hr><gpxtpx:cad>84</gpxtpx:cad></gpxtpx:TrackPointExtension></extensions></trkpt>
<trkpt lat="45.004086" lon="4.992813"><ele>203.3</ele><time>2026-05-17T07:42:45Z</time><extensions><gpxtpx:TrackPointExtension><gpxtpx:hr>153</gpxtpx:hr><gpxtpx:cad>84</gpxtpx:cad></gpxtpx:TrackPointExtension></extensions></trkpt>
<trkpt lat="45.003945" lon="4.992678"><ele>203.1</ele><time>2026-05-17T07:42:50Z</time><extensions><gpxtpx:TrackPointExtension><gpxtpx:hr>154</gpxtpx:hr><gpxtpx:cad>84</gpxtpx:cad></gpxtpx:TrackPointExtension></extensions></trkpt>
<trkpt lat="45.003804" lon="4.992535"><ele>202.9</ele><time>2026-05-17T07:42:55Z</time><extensions><gpxtpx:TrackPointExtension><gpxtpx:hr>155</gpxtpx:hr><gpxtpx:cad>84</gpxtpx:cad></gpxtpx:TrackPointExtension></extensions></trkpt>
<trkpt lat="45.003661" lon="4.992385"><ele>202.7</ele><time>2026-05-17T07:43:00Z</time><extensions><gpxtpx:TrackPointExtension><gpxtpx:hr>156</gpxtpx:hr><gpxtpx:cad>84</gpxtpx:cad></gpxtpx:TrackPointExtension></extensions></trkpt>
<trkpt lat="45.003517" lon="4.992228"><ele>202.6</ele><time>2026-05-17T07:43:05Z</time><extensions><gpxtpx:TrackPointExtension><gpxtpx:hr>157</gpxtpx:hr><gpxtpx:cad>84</gpxtpx:cad></gpxtpx:TrackPointExtension></extensions></trkpt>
<trkpt lat="45.003371" lon="4.992064"><ele>202.4</ele><time>2026-05-17T07:43:10Z</time><extensions><gpxtpx:TrackPointExtension><gpxtpx:hr>158</gpxtpx:hr><gpxtpx:cad>84</gpxtpx:cad></gpxtpx:TrackPointExtension></extensions></trkpt>
<trkpt lat="45.003225" lon="4.991894"><ele>202.3</ele><time>2026-05-17T07:43:15Z</time><extensions><gpxtpx:TrackPointExtension><gpxtpx:hr>159</gpxtpx:hr><gpxtpx:cad>84</gpxtpx:cad></gpxtpx:TrackPointExtension></extensions></trkpt>
<trkpt lat="45.003078" lon="4.991718"><ele>202.1</ele><time>2026-05-17T07:43:20Z</time><extensions><gpxtpx:TrackPointExtension><gpxtpx:hr>140</gpxtpx:hr><gpxtpx:cad>84</gpxtpx:cad></gpxtpx:TrackPointExtension></extensions></trkpt>
<trkpt lat="45.002930" lon="4.991536"><ele>202.0</ele><time>2026-05-17T07:43:25Z</time><extensions><gpxtpx:TrackPointExtension><gpxtpx:hr>141</gpxtpx:hr><gpxtpx:cad>84</gpxtpx:cad></gpxtpx:TrackPointExtension></extensions></trkpt>
<trkpt lat="45.002781" lon="4.991348"><ele>201.8</ele><time>2026-05-17T07:43:30Z</time><extensions><gpxtpx:TrackPointExtension><gpxtpx:hr>142</gpxtpx:hr><gpxtpx:cad>84</gpxtpx:cad></gpxtpx:TrackPointExtension></extensions></trkpt>
<trkpt lat="45.002631" lon="4.991155"><ele>201.7</ele><time>2026-05-17T07:43:35Z</time><extensions><gpxtpx:TrackPointExtension><gpxtpx:hr>143</gpxtpx:hr><gpxtpx:cad>84</gpxtpx:cad></gpxtpx:TrackPointExtension></extensions></trkpt>
<trkpt lat="45.002481" lon="4.990957"><ele>201.6</ele><time>2026-05-17T07:43:40Z</time><extensions><gpxtpx:TrackPointExtension><gpxtpx:hr>144</gpxtpx:hr><gpxtpx:cad>84</gpxtpx:cad></gpxtpx:TrackPointExtension></extensions></trkpt>
<trkpt lat="45.002329" lon="4.990754"><ele>201.5</ele><time>2026-05-17T07:43:45Z</time><extensions><gpxtpx:TrackPointExtension><gpxtpx:hr>145</gpxtpx:hr><gpxtpx:cad>84</gpxtpx:cad></gpxtpx:TrackPointExtension></extensions></trkpt>
<trkpt lat="45.002177" lon="4.990548"><ele>201.4</ele><time>2026-05-17T07:43:50Z</time><extensions><gpxtpx:TrackPointExtension><gpxtpx:hr>146</gpxtpx:hr><gpxtpx:cad>84</gpxtpx:cad></gpxtpx:TrackPointExtension></extensions></trkpt>
<trkpt lat="45.002025" lon="4.990338"><ele>201.2</ele><time>2026-05-17T07:43:55Z</time><extensions><gpxtpx:TrackPointExtension><gpxtpx:hr>147</gpxtpx:hr><gpxtpx:cad>84</gpxtpx:cad></gpxtpx:TrackPointExtension></extensions></trkpt>
<trkpt lat="45.001871" lon="4.990124"><ele>201.1</ele><time>2026-05-17T07:44:00Z</time><extensions><gpxtpx:TrackPointExtension><gpxtpx:hr>148</gpxtpx:hr><gpxtpx:cad>84</gpxtpx:cad></gpxtpx:TrackPointExtension></extensions></trkpt>
<trkpt lat="45.001717" lon="4.989908"><ele>201.0</ele><time>2026-05-17T07:44:05Z</time><extensions><gpxtpx:TrackPointExtension><gpxtpx:hr>149</gpxtpx:hr><gpxtpx:cad>84</gpxtpx:cad></gpxtpx:TrackPointExtension></extensions></trkpt>
<trkpt lat="45.001563" lon="4.989690"><ele>200.9</ele><time>2026-05-17T07:44:10Z</time><extensions><gpxtpx:TrackPointExtension><gpxtpx:hr>150</gpxtpx:hr><gpxtpx:cad>84</gpxtpx:cad></gpxtpx:TrackPointExtension></extensions></trkpt>
<trkpt lat="45.001408" lon="4.989470"><ele>200.8</ele><time>2026-05-17T07:44:15Z</time><extensions><gpxtpx:TrackPointExtension><gpxtpx:hr>151</gpxtpx:hr><gpxtpx:cad>84</gpxtpx:cad></gpxtpx:TrackPointExtension></extensions></trkpt>
<trkpt lat="45.001253" lon="4.989249"><ele>200.7</ele><time>2026-05-17T07:44:20Z</time><extensions><gpxtpx:TrackPointExtension><gpxtpx:hr>152</gpxtpx:hr><gpxtpx:cad>84</gpxtpx:cad></gpxtpx:TrackPointExtension></extensions></trkpt>
<trkpt lat="45.001097" lon="4.989027"><ele>200.6</ele><time>2026-05-17T07:44:25Z</time><extensions><gpxtpx:TrackPointExtension><gpxtpx:hr>153</gpxtpx:hr><gpxtpx:cad>84</gpxtpx:cad></gpxtpx:TrackPointExtension></extensions></trkpt>
<trkpt lat="45.000941" lon="4.988805"><ele>200.5</ele><time>2026-05-17T07:44:30Z</time><extensions><gpxtpx:TrackPointExtension><gpxtpx:hr>154</gpxtpx:hr><gpxtpx:cad>84</gpxtpx:cad></gpxtpx:TrackPointExtension></extensions></trkpt>
<trkpt lat="45.000784" lon="4.988583"><ele>200.4</ele><time>2026-05-17T07:44:35Z</time><extensions><gpxtpx:TrackPointExtension><gpxtpx:hr>155</gpxtpx:hr><gpxtpx:cad>84</gpxtpx:cad></gpxtpx:TrackPointExtension></extensions></trkpt>
<trkpt lat="45.000628" lon="4.988362"><ele>200.4</ele><time>2026-05-17T07:44:40Z</time><extensions><gpxtpx:TrackPointExtension><gpxtpx:hr>156</gpxtpx:hr><gpxtpx:cad>84</gpxtpx:cad></gpxtpx:TrackPointExtension></extensions></trkpt>
<trkpt lat="45.000471" lon="4.988143"><ele>200.3</ele><time>2026-05-17T07:44:45Z</time><extensions><gpxtpx:TrackPointExtension><gpxtpx:hr>157</gpxtpx:hr><gpxtpx:cad>84</gpxtpx:cad></gpxtpx:TrackPointExtension></extensions></trkpt>
<trkpt lat="45.000314" lon="4.987926"><ele>200.2</ele><time>2026-05-17T07:44:50Z</time><extensions><gpxtpx:TrackPointExtension><gpxtpx:hr>158</gpxtpx:hr><gpxtpx:cad>84</gpxtpx:cad></gpxtpx:TrackPointExtension></extensions></trkpt>
<trkpt lat="45.000157" lon="4.987711"><ele>200.1</ele><time>2026-05-17T07:44:55Z</time><extensions><gpxtpx:TrackPointExtension><gpxtpx:hr>159</gpxtpx:hr><gpxtpx:cad>84</gpxtpx:cad></gpxtpx:TrackPointExtension></extensions></trkpt>
<trkpt lat="45.000000" lon="4.987500"><ele>200.0</ele><time>2026-05-17T07:45:00Z</time><extensions><gpxtpx:TrackPointExtension><gpxtpx:hr>140</gpxtpx:hr><gpxtpx:cad>84</gpxtpx:cad></gpxtpx:TrackPointExtension></extensions></trkpt>
<trkpt lat="44.999843" lon="4.987293"><ele>199.9</ele><time>2026-05-17T07:45:05Z</time><extensions><gpxtpx:TrackPointExtension><gpxtpx:hr>141</gpxtpx:hr><gpxtpx:cad>84</gpxtpx:cad></gpxtpx:TrackPointExtension></extensions></trkpt>
<trkpt lat="44.999686" lon="4.987090"><ele>199.8</ele><time>2026-05-17T07:45:10Z</time><extensions><gpxtpx:TrackPointExtension><gpxtpx:hr>142</gpxtpx:hr><gpxtpx:cad>84</gpxtpx:cad></gpxtpx:TrackPointExtension></extensions></trkpt>
<trkpt lat="44.999529" lon="4.986891"><ele>199.7</ele><time>2026-05-17T07:45:15Z</time><extensions><gpxtpx:TrackPointExtension><gpxtpx:hr>143</gpxtpx:hr><gpxtpx:cad>84</gpxtpx:cad></gpxtpx:TrackPointExtension></extensions></trkpt>
<trkpt lat="44.999372" lon="4.986699"><ele>199.6</ele><time>2026-05-17T07:45:20Z</time><extensions><gpxtpx:TrackPointExtension><gpxtpx:hr>144</gpxtpx:hr><gpxtpx:cad>84</gpxtpx:cad></gpxtpx:TrackPointExtension></extensions></trkpt>
<trkpt lat="44.999216" lon="4.986512"><ele>199.6</ele><time>2026-05-17T07:45:25Z</time><extensions><gpxtpx:TrackPointExtension><gpxtpx:hr>145</gpxtpx:hr><gpxtpx:cad>84</gpxtpx:cad></gpxtpx:TrackPointExtension></extensions></trkpt>
<trkpt lat="44.999059" lon="4.986332"><ele>199.5</ele><time>2026-05-17T07:45:30Z</time><extensions><gpxtpx:TrackPointExtension><gpxtpx:hr>146</gpxtpx:hr><gpxtpx:cad>84</gpxtpx:cad></gpxtpx:TrackPointExtension></extensions></trkpt>
<trkpt lat="44.998903" lon="4.986160"><ele>199.4</ele><time>2026-05-17T07:45:35Z</time><extensions><gpxtpx:TrackPointExtension><gpxtpx:hr>147</gpxtpx:hr><gpxtpx:cad>84</gpxtpx:cad></gpxtpx:TrackPointExtension></extensions></trkpt>
<trkpt lat="44.998747" lon="4.985995"><ele>199.3</ele><time>2026-05-17T07:45:40Z</time><extensions><gpxtpx:TrackPointExtension><gpxtpx:hr>148</gpxtpx:hr><gpxtpx:cad>84</gpxtpx:cad></gpxtpx:TrackPointExtension></extensions></trkpt>
<trkpt lat="44.998592" lon="4.985838"><ele>199.2</ele><time>2026-05-17T07:45:45Z</time><extensions><gpxtpx:TrackPointExtension><gpxtpx:hr>149</gpxtpx:hr><gpxtpx:cad>84</gpxtpx:cad></gpxtpx:TrackPointExtension></extensions></trkpt>
<trkpt lat="44.998437" lon="4.985690"><ele>199.1</ele><time>2026-05-17T07:45:50Z</time><extensions><gpxtpx:TrackPointExtension><gpxtpx:hr>150</gpxtpx:hr><gpxtpx:cad>84</gpxtpx:cad></gpxtpx:TrackPointExtension></extensions></trkpt>
<trkpt lat="44.998283" lon="4.985551"><ele>199.0</ele><time>2026-05-17T07:45:55Z</time><extensions><gpxtpx:TrackPointExtension><gpxtpx:hr>151</gpxtpx:hr><gpxtpx:cad>84</gpxtpx:cad></gpxtpx:TrackPointExtension></extensions></trkpt>
<trkpt lat="44.998129" lon="4.985422"><ele>198.9</ele><time>2026-05-17T07:46:00Z</time><extensions><gpxtpx:TrackPointExtension><gpxtpx:hr>152</gpxtpx:hr><gpxtpx:cad>84</gpxtpx:cad></gpxtpx:TrackPointExtension></extensions></trkpt>
<trkpt lat="44.997975" lon="4.985303"><ele>198.8</ele><time>2026-05-17T07:46:05Z</time><extensions><gpxtpx:TrackPointExtension><gpxtpx:hr>153</gpxtpx:hr><gpxtpx:cad>84</gpxtpx:cad></gpxtpx:TrackPointExtension></extensions></trkpt>
<trkpt lat="44.997823" lon="4.985195"><ele>198.6</ele><time>2026-05-17T07:46:10Z</time><extensions><gpxtpx:TrackPointExtension><gpxtpx:hr>154</gpxtpx:hr><gpxtpx:cad>84</gpxtpx:cad></gpxtpx:TrackPointExtension></extensions></trkpt>
<trkpt lat="44.997671" lon="4.985098"><ele>198.5</ele><time>2026-05-17T07:46:15Z</time><extensions><gpxtpx:TrackPointExtension><gpxtpx:hr>155</gpxtpx:hr><gpxtpx:cad>84</gpxtpx:cad></gpxtpx:TrackPointExtension></extensions></trkpt>
<trkpt lat="44.997519" lon="4.985012"><ele>198.4</ele><time>2026-05-17T07:46:20Z</time><extensions><gpxtpx:TrackPointExtension><gpxtpx:hr>156</gpxtpx:hr><gpxtpx:cad>84</gpxtpx:cad></gpxtpx:TrackPointExtension></extensions></trkpt>
<trkpt lat="44.997369" lon="4.984938"><ele>198.3</ele><time>2026-05-17T07:46:25Z</time><extensions><gpxtpx:TrackPointExtension><gpxtpx:hr>157</gpxtpx:hr><gpxtpx:cad>84</gpxtpx:cad></gpxtpx:TrackPointExtension></extensions></trkpt>
<trkpt lat="44.997219" lon="4.984876"><ele>198.2</ele><time>2026-05-17T07:46:30Z</time><extensions><gpxtpx:TrackPointExtension><gpxtpx:hr>158</gpxtpx:hr><gpxtpx:cad>84</gpxtpx:cad></gpxtpx:TrackPointExtension></extensions></trkpt>
<trkpt lat="44.997070" lon="4.984826"><ele>198.0</ele><time>2026-05-17T07:46:35Z</time><extensions><gpxtpx:TrackPointExtension><gpxtpx:hr>159</gpxtpx:hr><gpxtpx:cad>84</gpxtpx:cad></gpxtpx:TrackPointExtension></extensions></trkpt>
<trkpt lat="44.996922" lon="4.984790"><ele>197.9</ele><time>2026-05-17T07:46:40Z</time><extensions><gpxtpx:TrackPointExtension><gpxtpx:hr>140</gpxtpx:hr><gpxtpx:cad>84</gpxtpx:cad></gpxtpx:TrackPointExtension></extensions></trkpt>
<trkpt lat="44.996775" lon="4.984766"><ele>197.7</ele><time>2026-05-17T07:46:45Z</time><extensions><gpxtpx:TrackPointExtension><gpxtpx:hr>141</gpxtpx:hr><gpxtpx:cad>84</gpxtpx:cad></gpxtpx:TrackPointExtension></extensions></trkpt>
<trkpt lat="44.996629" lon="4.984756"><ele>197.6</ele><time>2026-05-17T07:46:50Z</time><extensions><gpxtpx:TrackPointExtension><gpxtpx:hr>142</gpxtpx:hr><gpxtpx:cad>84</gpxtpx:cad></gpxtpx:TrackPointExtension></extensions></trkpt>
<trkpt lat="44.996483" lon="4.984759"><ele>197.4</ele><time>2026-05-17T07:46:55Z</time><extensions><gpxtpx:TrackPointExtension><gpxtpx:hr>143</gpxtpx:hr><gpxtpx:cad>84</gpxtpx:cad></gpxtpx:TrackPointExtension></extensions></trkpt>
<trkpt lat="44.996339" lon="4.984776"><ele>197.3</ele><time>2026-05-17T07:47:00Z</time><extensions><gpxtpx:TrackPointExtension><gpxtpx:hr>144</gpxtpx:hr><gpxtpx:cad>84</gpxtpx:cad></gpxtpx:TrackPointExtension></extensions></trkpt>
<trkpt lat="44.996196" lon="4.984807"><ele>197.1</ele><time>2026-05-17T07:47:05Z</time><extensions><gpxtpx:TrackPointExtension><gpxtpx:hr>145</gpxtpx:hr><gpxtpx:cad>84</gpxtpx:cad></gpxtpx:TrackPointExtension></extensions></trkpt>
<trkpt lat="44.996055" lon="4.984852"><ele>196.9</ele><time>2026-05-17T07:47:10Z</time><extensions><gpxtpx:TrackPointExtension><gpxtpx:hr>146</gpxtpx:hr><gpxtpx:cad>84</gpxtpx:cad></gpxtpx:TrackPointExtension></extensions></trkpt>
<trkpt lat="44.995914" lon="4.984912"><ele>196.7</ele><time>2026-05-17T07:47:15Z</time><extensions><gpxtpx:TrackPointExtension><gpxtpx:hr>147</gpxtpx:hr><gpxtpx:cad>84</gpxtpx:cad></gpxtpx:TrackPointExtension></extensions></trkpt>
<trkpt lat="44.995775" lon="4.984985"><ele>196.6</ele><time>2026-05-17T07:47:20Z</time><extensions><gpxtpx:TrackPointExtension><gpxtpx:hr>148</gpxtpx:hr><gpxtpx:cad>84</gpxtpx:cad></gpxtpx:TrackPointExtension></extensions></trkpt>
<trkpt lat="44.995637" lon="4.985073"><ele>196.4</ele><time>2026-05-17T07:47:25Z</time><extensions><gpxtpx:TrackPointExtension><gpxtpx:hr>149</gpxtpx:hr><gpxtpx:cad>84</gpxtpx:cad></gpxtpx:TrackPointExtension></extensions></trkpt>
<trkpt lat="44.995500" lon="4.985175"><ele>196.2</ele><time>2026-05-17T07:47:30Z</time><extensions><gpxtpx:TrackPointExtension><gpxtpx:hr>150</gpxtpx:hr><gpxtpx:cad>84</gpxtpx:cad></gpxtpx:TrackPointExtension></extensions></trkpt>
<trkpt lat="44.995365" lon="4.985291"><ele>196.0</ele><time>2026-05-17T07:47:35Z</time><extensions><gpxtpx:TrackPointExtension><gpxtpx:hr>151</gpxtpx:hr><gpxtpx:cad>84</gpxtpx:cad></gpxtpx:TrackPointExtension></extensions></trkpt>
<trkpt lat="44.995231" lon="4.985421"><ele>195.7</ele><time>2026-05-17T07:47:40Z</time><extensions><gpxtpx:TrackPointExtension><gpxtpx:hr>152</gpxtpx:hr><gpxtpx:cad>84</gpxtpx:cad></gpxtpx:TrackPointExtension></extensions></trkpt>
<trkpt lat="44.995098" lon="4.985566"><ele>195.5</ele><time>2026-05-17T07:47:45Z</time><extensions><gpxtpx:TrackPointExtension><gpxtpx:hr>153</gpxtpx:hr><gpxtpx:cad>84</gpxtpx:cad></gpxtpx:TrackPointExtension></extensions></trkpt>
<trkpt lat="44.994967" lon="4.985724"><ele>195.3</ele><time>2026-05-17T07:47:50Z</time><extensions><gpxtpx:TrackPointExtension><gpxtpx:hr>154</gpxtpx:hr><gpxtpx:cad>84</gpxtpx:cad></gpxtpx:TrackPointExtension></extensions></trkpt>
<trkpt lat="44.994838" lon="4.985897"><ele>195.1</ele><time>2026-05-17T07:47:55Z</time><extensions><gpxtpx:TrackPointExtension><gpxtpx:hr>155</gpxtpx:hr><gpxtpx:cad>84</gpxtpx:cad></gpxtpx:TrackPointExtension></extensions></trkpt>
<trkpt lat="44.994710" lon="4.986083"><ele>194.8</ele><time>2026-05-17T07:48:00Z</time><extensions><gpxtpx:TrackPointExtension><gpxtpx:hr>156</gpxtpx:hr><gpxtpx:cad>84</gpxtpx:cad></gpxtpx:TrackPointExtension></extensions></trkpt>
<trkpt lat="44.994584" lon="4.986283"><ele>194.6</ele><time>2026-05-17T07:48:05Z</time><extensions><gpxtpx:TrackPointExtension><gpxtpx:hr>157</gpxtpx:hr><gpxtpx:cad>84</gpxtpx:cad></gpxtpx:TrackPointExtension></extensions></trkpt>
<trkpt lat="44.994459" lon="4.986496"><ele>194.3</ele><time>2026-05-17T07:48:10Z</time><extensions><gpxtpx:TrackPointExtension><gpxtpx:hr>158</gpxtpx:hr><gpxtpx:cad>84</gpxtpx:cad></gpxtpx:TrackPointExtension></extensions></trkpt>
<trkpt lat="44.994336" lon="4.986722"><ele>194.0</ele><time>2026-05-17T07:48:15Z</time><extensions><gpxtpx:TrackPointExtension><gpxtpx:hr>159</gpxtpx:hr><gpxtpx:cad>84</gpxtpx:cad></gpxtpx:TrackPointExtension></extensions></trkpt>
<trkpt lat="44.994215" lon="4.986960"><ele>193.8</ele><time>2026-05-17T07:48:20Z</time><extensions><gpxtpx:TrackPointExtension><gpxtpx:hr>140</gpxtpx:hr><gpxtpx:cad>84</gpxtpx:cad></gpxtpx:TrackPointExtension></extensions></trkpt>
<trkpt lat="44.994095" lon="4.987211"><ele>193.5</ele><time>2026-05-17T07:48:25Z</time><extensions><gpxtpx:TrackPointExtension><gpxtpx:hr>141</gpxtpx:hr><gpxtpx:cad>84</gpxtpx:cad></gpxtpx:TrackPointExtension></extensions></trkpt>
<trkpt lat="44.993978" lon="4.987475"><ele>193.2</ele><time>2026-05-17T07:48:30Z</time><extensions><gpxtpx:TrackPointExtension><gpxtpx:hr>142</gpxtpx:hr><gpxtpx:cad>84</gpxtpx:cad></gpxtpx:TrackPointExtension></extensions></trkpt>
<trkpt lat="44.993862" lon="4.987749"><ele>192.9</ele><time>2026-05-17T07:48:35Z</time><extensions><gpxtpx:TrackPointExtension><gpxtpx:hr>143</gpxtpx:hr><gpxtpx:cad>84</gpxtpx:cad></gpxtpx:TrackPointExtension></extensions></trkpt>
<trkpt lat="44.993748" lon="4.988036"><ele>192.6</ele><time>2026-05-17T07:48:40Z</time><extensions><gpxtpx:TrackPointExtension><gpxtpx:hr>144</gpxtpx:hr><gpxtpx:cad>84</gpxtpx:cad></gpxtpx:TrackPointExtension></extensions></trkpt>
<trkpt lat="44.993636" lon="4.988333"><ele>192.3</ele><time>2026-05-17T07:48:45Z</time><extensions><gpxtpx:TrackPointExtension><gpxtpx:hr>145</gpxtpx:hr><gpxtpx:cad>84</gpxtpx:cad></gpxtpx:TrackPointExtension></extensions></trkpt>
<trkpt lat="44.993526" lon="4.988640"><ele>192.0</ele><time>2026-05-17T07:48:50Z</time><extensions><gpxtpx:TrackPointExtension><gpxtpx:hr>146</gpxtpx:hr><gpxtpx:cad>84</gpxtpx:cad></gpxtpx:TrackPointExtension></extensions></trkpt>
<trkpt lat="44.993418" lon="4.988958"><ele>191.7</ele><time>2026-05-17T07:48:55Z</time><extensions><gpxtpx:TrackPointExtension><gpxtpx:hr>147</gpxtpx:hr><gpxtpx:cad>84</gpxtpx:cad></gpxtpx:TrackPointExtension></extensions></trkpt>
<trkpt lat="44.993312" lon="4.989285"><ele>191.4</ele><time>2026-05-17T07:49:00Z</time><extensions><gpxtpx:TrackPointExtension><gpxtpx:hr>148</gpxtpx:hr><gpxtpx:cad>84</gpxtpx:cad></gpxtpx:TrackPointExtension></extensions></trkpt>
<trkpt lat="44.993208" lon="4.989621"><ele>191.0</ele><time>2026-05-17T07:49:05Z</time><extensions><gpxtpx:TrackPointExtension><gpxtpx:hr>149</gpxtpx:hr><gpxtpx:cad>84</gpxtpx:cad></gpxtpx:TrackPointExtension></extensions></trkpt>
<trkpt lat="44.993106" lon="4.989965"><ele>190.7</ele><time>2026-05-17T07:49:10Z</time><extensions><gpxtpx:TrackPointExtension><gpxtpx:hr>150</gpxtpx:hr><gpxtpx:cad>84</gpxtpx:cad></gpxtpx:TrackPointExtension></extensions></trkpt>
<trkpt lat="44.993006" lon="4.990318"><ele>190.4</ele><time>2026-05-17T07:49:15Z</time><extensions><gpxtpx:TrackPointExtension><gpxtpx:hr>151</gpxtpx:hr><gpxtpx:cad>84</gpxtpx:cad></gpxtpx:TrackPointExtension></extensions></trkpt>
<trkpt lat="44.992908" lon="4.990677"><ele>190.0</ele><time>2026-05-17T07:49:20Z</time><extensions><gpxtpx:TrackPointExtension><gpxtpx:hr>152</gpxtpx:hr><gpxtpx:cad>84</gpxtpx:cad></gpxtpx:TrackPointExtension></extensions></trkpt>
<trkpt lat="44.992812" lon="4.991044"><ele>189.6</ele><time>2026-05-17T07:49:25Z</time><extensions><gpxtpx:TrackPointExtension><gpxtpx:hr>153</gpxtpx:hr><gpxtpx:cad>84</gpxtpx:cad></gpxtpx:TrackPointExtension></extensions></trkpt>
<trkpt lat="44.992719" lon="4.991417"><ele>189.3</ele><time>2026-05-17T07:49:30Z</time><extensions><gpxtpx:TrackPointExtension><gpxtpx:hr>154</gpxtpx:hr><gpxtpx:cad>84</gpxtpx:cad></gpxtpx:TrackPointExtension></extensions></trkpt>
<trkpt lat="44.992628" lon="4.991795"><ele>188.9</ele><time>2026-05-17T07:49:35Z</time><extensions><gpxtpx:TrackPointExtension><gpxtpx:hr>155</gpxtpx:hr><gpxtpx:cad>84</gpxtpx:cad></gpxtpx:TrackPointExtension></extensions></trkpt>
<trkpt lat="44.992539" lon="4.992178"><ele>188.5</ele><time>2026-05-17T07:49:40Z</time><extensions><gpxtpx:TrackPointExtension><gpxtpx:hr>156</gpxtpx:hr><gpxtpx:cad>84</gpxtpx:cad></gpxtpx:TrackPointExtension></extensions></trkpt>
<trkpt lat="44.992452" lon="4.992566"><ele>188.2</ele><time>2026-05-17T07:49:45Z</time><extensions><gpxtpx:TrackPointExtension><gpxtpx:hr>157</gpxtpx:hr><gpxtpx:cad>84</gpxtpx:cad></gpxtpx:TrackPointExtension></extensions></trkpt>
<trkpt lat="44.992368" lon="4.992958"><ele>187.8</ele><time>2026-05-17T07:49:50Z</time><extensions><gpxtpx:TrackPointExtension><gpxtpx:hr>158</gpxtpx:hr><gpxtpx:cad>84</gpxtpx:cad></gpxtpx:TrackPointExtension></extensions></trkpt>
<trkpt lat="44.992285" lon="4.993353"><ele>187.4</ele><time>2026-05-17T07:49:55Z</time><extensions><gpxtpx:TrackPointExtension><gpxtpx:hr>159</gpxtpx:hr><gpxtpx:cad>84</gpxtpx:cad></gpxtpx:TrackPointExtension></extensions></trkpt>
<trkpt lat="44.992206" lon="4.993750"><ele>187.0</ele><time>2026-05-17T07:50:00Z</time><extensions><gpxtpx:TrackPointExtension><gpxtpx:hr>140</gpxtpx:hr><gpxtpx:cad>84</gpxtpx:cad></gpxtpx:TrackPointExtension></extensions></trkpt>
<trkpt lat="44.992128" lon="4.994149"><ele>186.6</ele><time>2026-05-17T07:50:05Z</time><extensions><gpxtpx:TrackPointExtension><gpxtpx:hr>141</gpxtpx:hr><gpxtpx:cad>84</gpxtpx:cad></gpxtpx:TrackPointExtension></extensions></trkpt>
<trkpt lat="44.992053" lon="4.994550"><ele>186.2</ele><time>2026-05-17T07:50:10Z</time><extensions><gpxtpx:TrackPointExtension><gpxtpx:hr>142</gpxtpx:hr><gpxtpx:cad>84</gpxtpx:cad></gpxtpx:TrackPointExtension></extensions></trkpt>
<trkpt lat="44.991981" lon="4.994951"><ele>185.8</ele><time>2026-05-17T07:50:15Z</time><extensions><gpxtpx:TrackPointExtension><gpxtpx:hr>143</gpxtpx:hr><gpxtpx:cad>84</gpxtpx:cad></gpxtpx:TrackPointExtension></extensions></trkpt>
<trkpt lat="44.991911" lon="4.995352"><ele>185.4</ele><time>2026-05-17T07:50:20Z</time><extensions><gpxtpx:TrackPointExtension><gpxtpx:hr>144</gpxtpx:hr><gpxtpx:cad>84</gpxtpx:cad></gpxtpx:TrackPointExtension></extensions></trkpt>
<trkpt lat="44.991843" lon="4.995753"><ele>185.0</ele><time>2026-05-17T07:50:25Z</time><extensions><gpxtpx:TrackPointExtension><gpxtpx:hr>145</gpxtpx:hr><gpxtpx:cad>84</gpxtpx:cad></gpxtpx:TrackPointExtension></extensions></trkpt>
<trkpt lat="44.991778" lon="4.996152"><ele>184.6</ele><time>2026-05-17T07:50:30Z</time><extensions><gpxtpx:TrackPointExtension><gpxtpx:hr>146</gpxtpx:hr><gpxtpx:cad>84</gpxtpx:cad></gpxtpx:TrackPointExtension></extensions></trkpt>
<trkpt lat="44.991715" lon="4.996549"><ele>184.2</ele><time>2026-05-17T07:50:35Z</time><extensions><gpxtpx:TrackPointExtension><gpxtpx:hr>147</gpxtpx:hr><gpxtpx:cad>84</gpxtpx:cad></gpxtpx:TrackPointExtension></extensions></trkpt>
<trkpt lat="44.991655" lon="4.996944"><ele>183.8</ele><time>2026-05-17T07:50:40Z</time><extensions><gpxtpx:TrackPointExtension><gpxtpx:hr>148</gpxtpx:hr><gpxtpx:cad>84</gpxtpx:cad></gpxtpx:TrackPointExtension></extensions></trkpt>
<trkpt lat="44.991598" lon="4.997336"><ele>183.4</ele><time>2026-05-17T07:50:45Z</time><extensions><gpxtpx:TrackPointExtension><gpxtpx:hr>149</gpxtpx:hr><gpxtpx:cad>84</gpxtpx:cad></gpxtpx:TrackPointExtension></extensions></trkpt>
<trkpt lat="44.991543" lon="4.997725"><ele>182.9</ele><time>2026-05-17T07:50:50Z</time><extensions><gpxtpx:TrackPointExtension><gpxtpx:hr>150</gpxtpx:hr><gpxtpx:cad>84</gpxtpx:cad></gpxtpx:TrackPointExtension></extensions></trkpt>
<trkpt lat="44.991490" lon="4.998109"><ele>182.5</ele><time>2026-05-17T07:50:55Z</time><extensions><gpxtpx:TrackPointExtension><gpxtpx:hr>151</gpxtpx:hr><gpxtpx:cad>84</gpxtpx:cad></gpxtpx:TrackPointExtension></extensions></trkpt>
<trkpt lat="44.991440" lon="4.998488"><ele>182.1</ele><time>2026-05-17T07:51:00Z</time><extensions><gpxtpx:TrackPointExtension><gpxtpx:hr>152</gpxtpx:hr><gpxtpx:cad>84</gpxtpx:cad></gpxtpx:TrackPointExtension></extensions></trkpt>
<trkpt lat="44.991393" lon="4.998863"><ele>181.7</ele><time>2026-05-17T07:51:05Z</time><extensions><gpxtpx:TrackPointExtension><gpxtpx:hr>153</gpxtpx:hr><gpxtpx:cad>84</gpxtpx:cad></gpxtpx:TrackPointExtension></extensions></trkpt>
<trkpt lat="44.991349" lon="4.999231"><ele>181.3</ele><time>2026-05-17T07:51:10Z</time><extensions><gpxtpx:TrackPointExtension><gpxtpx:hr>154</gpxtpx:hr><gpxtpx:cad>84</gpxtpx:cad></gpxtpx:TrackPointExtension></extensions></trkpt>
<trkpt lat="44.991307" lon="4.999593"><ele>180.9</ele><time>2026-05-17T07:51:15Z</time><extensions><gpxtpx:TrackPointExtension><gpxtpx:hr>155</gpxtpx:hr><gpxtpx:cad>84</gpxtpx:cad></gpxtpx:TrackPointExtension></extensions></trkpt>
<trkpt lat="44.991267" lon="4.999949"><ele>180.4</ele><time>2026-05-17T07:51:20Z</time><extensions><gpxtpx:TrackPointExtension><gpxtpx:hr>156</gpxtpx:hr><gpxtpx:cad>84</gpxtpx:cad></gpxtpx:TrackPointExtension></extensions></trkpt>
<trkpt lat="44.991231" lon="5.000297"><ele>180.0</ele><time>2026-05-17T07:51:25Z</time><extensions><gpxtpx:TrackPointExtension><gpxtpx:hr>157</gpxtpx:hr><gpxtpx:cad>84</gpxtpx:cad></gpxtpx:TrackPointExtension></extensions></trkpt>
<trkpt lat="44.991197" lon="5.000637"><ele>179.6</ele><time>2026-05-17T07:51:30Z</time><extensions><gpxtpx:TrackPointExtension><gpxtpx:hr>158</gpxtpx:hr><gpxtpx:cad>84</gpxtpx:cad></gpxtpx:TrackPointExtension></extensions></trkpt>
<trkpt lat="44.991165" lon="5.000970"><ele>179.2</ele><time>2026-05-17T07:51:35Z</time><extensions><gpxtpx:TrackPointExtension><gpxtpx:hr>159</gpxtpx:hr><gpxtpx:cad>84</gpxtpx:cad></gpxtpx:TrackPointExtension></extensions></trkpt>
<trkpt lat="44.991137" lon="5.001293"><ele>178.8</ele><time>2026-05-17T07:51:40Z</time><extensions><gpxtpx:TrackPointExtension><gpxtpx:hr>140</gpxtpx:hr><gpxtpx:cad>84</gpxtpx:cad></gpxtpx:TrackPointExtension></extensions></trkpt>
<trkpt lat="44.991111" lon="5.001609"><ele>178.4</ele><time>2026-05-17T07:51:45Z</time><extensions><gpxtpx:TrackPointExtension><gpxtpx:hr>141</gpxtpx:hr><gpxtpx:cad>84</gpxtpx:cad></gpxtpx:TrackPointExtension></extensions></trkpt>
<trkpt lat="44.991088" lon="5.001915"><ele>178.0</ele><time>2026-05-17T07:51:50Z</time><extensions><gpxtpx:TrackPointExtension><gpxtpx:hr>142</gpxtpx:hr><gpxtpx:cad>84</gpxtpx:cad></gpxtpx:TrackPointExtension></extensions></trkpt>
<trkpt lat="44.991067" lon="5.002211"><ele>177.6</ele><time>2026-05-17T07:51:55Z</time><extensions><gpxtpx:TrackPointExtension><gpxtpx:hr>143</gpxtpx:hr><gpxtpx:cad>84</gpxtpx:cad></gpxtpx:TrackPointExtension></extensions></trkpt>
<trkpt lat="44.991049" lon="5.002498"><ele>177.2</ele><time>2026-05-17T07:52:00Z</time><extensions><gpxtpx:TrackPointExtension><gpxtpx:hr>144</gpxtpx:hr><gpxtpx:cad>84</gpxtpx:cad></gpxtpx:TrackPointExtension></extensions></trkpt>
<trkpt lat="44.991034" lon="5.002774"><ele>176.8</ele><time>2026-05-17T07:52:05Z</time><extensions><gpxtpx:TrackPointExtension><gpxtpx:hr>145</gpxtpx:hr><gpxtpx:cad>84</gpxtpx:cad></gpxtpx:TrackPointExtension></extensions></trkpt>
<trkpt lat="44.991022" lon="5.003041"><ele>176.5</ele><time>2026-05-17T07:52:10Z</time><extensions><gpxtpx:TrackPointExtension><gpxtpx:hr>146</gpxtpx:hr><gpxtpx:cad>84</gpxtpx:cad></gpxtpx:TrackPointExtension></extensions></trkpt>
<trkpt lat="44.991012" lon="5.003297"><ele>176.1</ele><time>2026-05-17T07:52:15Z</time><extensions><gpxtpx:TrackPointExtension><gpxtpx:hr>147</gpxtpx:hr><gpxtpx:cad>84</gpxtpx:cad></gpxtpx:TrackPointExtension></extensions></trkpt>
<trkpt lat="44.991005" lon="5.003542"><ele>175.7</ele><time>2026-05-17T07:52:20Z</time><extensions><gpxtpx:TrackPointExtension><gpxtpx:hr>148</gpxtpx:hr><gpxtpx:cad>84</gpxtpx:cad></gpxtpx:TrackPointExtension></extensions></trkpt>
<trkpt lat="44.991001" lon="5.003776"><ele>175.4</ele><time>2026-05-17T07:52:25Z</time><extensions><gpxtpx:TrackPointExtension><gpxtpx:hr>149</gpxtpx:hr><gpxtpx:cad>84</gpxtpx:cad></gpxtpx:TrackPointExtension></extensions></trkpt>
<trkpt lat="44.991000" lon="5.004000"><ele>175.0</ele><time>2026-05-17T07:52:30Z</time><extensions><gpxtpx:TrackPointExtension><gpxtpx:hr>150</gpxtpx:hr><gpxtpx:cad>84</gpxtpx:cad></gpxtpx:TrackPointExtension></extensions></trkpt>
<trkpt lat="44.991001" lon="5.004213"><ele>174.7</ele><time>2026-05-17T07:52:35Z</time><extensions><gpxtpx:TrackPointExtension><gpxtpx:hr>151</gpxtpx:hr><gpxtpx:cad>84</gpxtpx:cad></gpxtpx:TrackPointExtension></extensions></trkpt>
<trkpt lat="44.991005" lon="5.004414"><ele>174.3</ele><time>2026-05-17T07:52:40Z</time><extensions><gpxtpx:TrackPointExtension><gpxtpx:hr>152</gpxtpx:hr><gpxtpx:cad>84</gpxtpx:cad></gpxtpx:TrackPointExtension></extensions></trkpt>
<trkpt lat="44.991012" lon="5.004605"><ele>174.0</ele><time>2026-05-17T07:52:45Z</time><extensions><gpxtpx:TrackPointExtension><gpxtpx:hr>153</gpxtpx:hr><gpxtpx:cad>84</gpxtpx:cad></gpxtpx:TrackPointExtension></extensions></trkpt>
<trkpt lat="44.991022" lon="5.004785"><ele>173.7</ele><time>2026-05-17T07:52:50Z</time><extensions><gpxtpx:TrackPointExtension><gpxtpx:hr>154</gpxtpx:hr><gpxtpx:cad>84</gpxtpx:cad></gpxtpx:TrackPointExtension></extensions></trkpt>
<trkpt lat="44.991034" lon="5.004953"><ele>173.4</ele><time>2026-05-17T07:52:55Z</time><extensions><gpxtpx:TrackPointExtension><gpxtpx:hr>155</gpxtpx:hr><gpxtpx:cad>84</gpxtpx:cad></gpxtpx:TrackPointExtension></extensions></trkpt>
<trkpt lat="44.991049" lon="5.005111"><ele>173.1</ele><time>2026-05-17T07:53:00Z</time><extensions><gpxtpx:TrackPointExtension><gpxtpx:hr>156</gpxtpx:hr><gpxtpx:cad>84</gpxtpx:cad></gpxtpx:TrackPointExtension></extensions></trkpt>
<trkpt lat="44.991067" lon="5.005258"><ele>172.8</ele><time>2026-05-17T07:53:05Z</time><extensions><gpxtpx:TrackPointExtension><gpxtpx:hr>157</gpxtpx:hr><gpxtpx:cad>84</gpxtpx:cad></gpxtpx:TrackPointExtension></extensions></trkpt>
<trkpt lat="44.991088" lon="5.005394"><ele>172.5</ele><time>2026-05-17T07:53:10Z</time><extensions><gpxtpx:TrackPointExtension><gpxtpx:hr>158</gpxtpx:hr><gpxtpx:cad>84</gpxtpx:cad></gpxtpx:TrackPointExtension></extensions></trkpt>
<trkpt lat="44.991111" lon="5.005519"><ele>172.2</ele><time>2026-05-17T07:53:15Z</time><extensions><gpxtpx:TrackPointExtension><gpxtpx:hr>159</gpxtpx:hr><gpxtpx:cad>84</gpxtpx:cad></gpxtpx:TrackPointExtension></extensions></trkpt>
<trkpt lat="44.991137" lon="5.005635"><ele>172.0</ele><time>2026-05-17T07:53:20Z</time><extensions><gpxtpx:TrackPointExtension><gpxtpx:hr>140</gpxtpx:hr><gpxtpx:cad>84</gpxtpx:cad></gpxtpx:TrackPointExtension></extensions></trkpt>
<trkpt lat="44.991165" lon="5.005740"><ele>171.7</ele><time>2026-05-17T07:53:25Z</time><extensions><gpxtpx:TrackPointExtension><gpxtpx:hr>141</gpxtpx:hr><gpxtpx:cad>84</gpxtpx:cad></gpxtpx:TrackPointExtension></extensions></trkpt>
<trkpt lat="44.991197" lon="5.005835"><ele>171.5</ele><time>2026-05-17T07:53:30Z</time><extensions><gpxtpx:TrackPointExtension><gpxtpx:hr>142</gpxtpx:hr><gpxtpx:cad>84</gpxtpx:cad></gpxtpx:TrackPointExtension></extensions></trkpt>
<trkpt lat="44.991231" lon="5.005920"><ele>171.3</ele><time>2026-05-17T07:53:35Z</time><extensions><gpxtpx:TrackPointExtension><gpxtpx:hr>143</gpxtpx:hr><gpxtpx:cad>84</gpxtpx:cad></gpxtpx:TrackPointExtension></extensions></trkpt>
<trkpt lat="44.991267" lon="5.005997"><ele>171.0</ele><time>2026-05-17T07:53:40Z</time><extensions><gpxtpx:TrackPointExtension><gpxtpx:hr>144</gpxtpx:hr><gpxtpx:cad>84</gpxtpx:cad></gpxtpx:TrackPointExtension></extensions></trkpt>
<trkpt lat="44.991307" lon="5.006064"><ele>170.9</ele><time>2026-05-17T07:53:45Z</time><extensions><gpxtpx:TrackPointExtension><gpxtpx:hr>145</gpxtpx:hr><gpxtpx:cad>84</gpxtpx:cad></gpxtpx:TrackPointExtension></extensions></trkpt>
<trkpt lat="44.991349" lon="5.006122"><ele>170.7</ele><time>2026-05-17T07:53:50Z</time><extensions><gpxtpx:TrackPointExtension><gpxtpx:hr>146</gpxtpx:hr><gpxtpx:cad>84</gpxtpx:cad></gpxtpx:TrackPointExtension></extensions></trkpt>
<trkpt lat="44.991393" lon="5.006172"><ele>170.5</ele><time>2026-05-17T07:53:55Z</time><extensions><gpxtpx:TrackPointExtension><gpxtpx:hr>147</gpxtpx:hr><gpxtpx:cad>84</gpxtpx:cad></gpxtpx:TrackPointExtension></extensions></trkpt>
<trkpt lat="44.991440" lon="5.006214"><ele>170.3</ele><time>2026-05-17T07:54:00Z</time><extensions><gpxtpx:TrackPointExtension><gpxtpx:hr>148</gpxtpx:hr><gpxtpx:cad>84</gpxtpx:cad></gpxtpx:TrackPointExtension></extensions></trkpt>
<trkpt lat="44.991490" lon="5.006248"><ele>170.2</ele><time>2026-05-17T07:54:05Z</time><extensions><gpxtpx:TrackPointExtension><gpxtpx:hr>149</gpxtpx:hr><gpxtpx:cad>84</gpxtpx:cad></gpxtpx:TrackPointExtension></extensions></trkpt>
<trkpt lat="44.991543" lon="5.006275"><ele>170.1</ele><time>2026-05-17T07:54:10Z</time><extensions><gpxtpx:TrackPointExtension><gpxtpx:hr>150</gpxtpx:hr><gpxtpx:cad>84</gpxtpx:cad></gpxtpx:TrackPointExtension></extensions></trkpt>
<trkpt lat="44.991598" lon="5.006296"><ele>170.0</ele><time>2026-05-17T07:54:15Z</time><extensions><gpxtpx:TrackPointExtension><gpxtpx:hr>151</gpxtpx:hr><gpxtpx:cad>84</gpxtpx:cad></gpxtpx:TrackPointExtension></extensions></trkpt>
<trkpt lat="44.991655" lon="5.006310"><ele>169.9</ele><time>2026-05-17T07:54:20Z</time><extensions><gpxtpx:TrackPointExtension><gpxtpx:hr>152</gpxtpx:hr><gpxtpx:cad>84</gpxtpx:cad></gpxtpx:TrackPointExtension></extensions></trkpt>
<trkpt lat="44.991715" lon="5.006318"><ele>169.8</ele><time>2026-05-17T07:54:25Z</time><extensions><gpxtpx:TrackPointExtension><gpxtpx:hr>153</gpxtpx:hr><gpxtpx:cad>84</gpxtpx:cad></gpxtpx:TrackPointExtension></extensions></trkpt>
<trkpt lat="44.991778" lon="5.006320"><ele>169.7</ele><time>2026-05-17T07:54:30Z</time><extensions><gpxtpx:TrackPointExtension><gpxtpx:hr>154</gpxtpx:hr><gpxtpx:cad>84</gpxtpx:cad></gpxtpx:TrackPointExtension></extensions></trkpt>
<trkpt lat="44.991843" lon="5.006318"><ele>169.7</ele><time>2026-05-17T07:54:35Z</time><extensions><gpxtpx:TrackPointExtension><gpxtpx:hr>155</gpxtpx:hr><gpxtpx:cad>84</gpxtpx:cad></gpxtpx:TrackPointExtension></extensions></trkpt>
<trkpt lat="44.991911" lon="5.006311"><ele>169.7</ele><time>2026-05-17T07:54:40Z</time><extensions><gpxtpx:TrackPointExtension><gpxtpx:hr>156</gpxtpx:hr><gpxtpx:cad>84</gpxtpx:cad></gpxtpx:TrackPointExtension></extensions></trkpt>
<trkpt lat="44.991981" lon="5.006301"><ele>169.6</ele><time>2026-05-17T07:54:45Z</time><extensions><gpxtpx:TrackPointExtension><gpxtpx:hr>157</gpxtpx:hr><gpxtpx:cad>84</gpxtpx:cad></gpxtpx:TrackPointExtension></extensions></trkpt>
<trkpt lat="44.992053" lon="5.006287"><ele>169.6</ele><time>2026-05-17T07:54:50Z</time><extensions><gpxtpx:TrackPointExtension><gpxtpx:hr>158</gpxtpx:hr><gpxtpx:cad>84</gpxtpx:cad></gpxtpx:TrackPointExtension></extensions></trkpt>
<trkpt lat="44.992128" lon="5.006269"><ele>169.7</ele><time>2026-05-17T07:54:55Z</time><extensions><gpxtpx:TrackPointExtension><gpxtpx:hr>159</gpxtpx:hr><gpxtpx:cad>84</gpxtpx:cad></gpxtpx:TrackPointExtension></extensions></trkpt>
<trkpt lat="44.992206" lon="5.006250"><ele>169.7</ele><time>2026-05-17T07:55:00Z</time><extensions><gpxtpx:TrackPointExtension><gpxtpx:hr>140</gpxtpx:hr><gpxtpx:cad>84</gpxtpx:cad></gpxtpx:TrackPointExtension></extensions></trkpt>
<trkpt lat="44.992285" lon="5.006229"><ele>169.7</ele><time>2026-05-17T07:55:05Z</time><extensions><gpxtpx:TrackPointExtension><gpxtpx:hr>141</gpxtpx:hr><gpxtpx:cad>84</gpxtpx:cad></gpxtpx:TrackPointExtension></extensions></trkpt>
<trkpt lat="44.992368" lon="5.006206"><ele>169.8</ele><time>2026-05-17T07:55:10Z</time><extensions><gpxtpx:TrackPointExtension><gpxtpx:hr>142</gpxtpx:hr><gpxtpx:cad>84</gpxtpx:cad></gpxtpx:TrackPointExtension></extensions></trkpt>
<trkpt lat="44.992452" lon="5.006182"><ele>169.9</ele><time>2026-05-17T07:55:15Z</time><extensions><gpxtpx:TrackPointExtension><gpxtpx:hr>143</gpxtpx:hr><gpxtpx:cad>84</gpxtpx:cad></gpxtpx:TrackPointExtension></extensions></trkpt>
<trkpt lat="44.992539" lon="5.006158"><ele>170.0</ele><time>2026-05-17T07:55:20Z</time><extensions><gpxtpx:TrackPointExtension><gpxtpx:hr>144</gpxtpx:hr><gpxtpx:cad>84</gpxtpx:cad></gpxtpx:TrackPointExtension></extensions></trkpt>
<trkpt lat="44.992628" lon="5.006134"><ele>170.1</ele><time>2026-05-17T07:55:25Z</time><extensions><gpxtpx:TrackPointExtension><gpxtpx:hr>145</gpxtpx:hr><gpxtpx:cad>84</gpxtpx:cad></gpxtpx:TrackPointExtension></extensions></trkpt>
<trkpt lat="44.992719" lon="5.006111"><ele>170.3</ele><time>2026-05-17T07:55:30Z</time><extensions><gpxtpx:TrackPointExtension><gpxtpx:hr>146</gpxtpx:hr><gpxtpx:cad>84</gpxtpx:cad></gpxtpx:TrackPointExtension></extensions></trkpt>
<trkpt lat="44.992812" lon="5.006089"><ele>170.4</ele><time>2026-05-17T07:55:35Z</time><extensions><gpxtpx:TrackPointExtension><gpxtpx:hr>147</gpxtpx:hr><gpxtpx:cad>84</gpxtpx:cad></gpxtpx:TrackPointExtension></extensions></trkpt>
<trkpt lat="44.992908" lon="5.006069"><ele>170.6</ele><time>2026-05-17T07:55:40Z</time><extensions><gpxtpx:TrackPointExtension><gpxtpx:hr>148</gpxtpx:hr><gpxtpx:cad>84</gpxtpx:cad></gpxtpx:TrackPointExtension></extensions></trkpt>
<trkpt lat="44.993006" lon="5.006051"><ele>170.8</ele><time>2026-05-17T07:55:45Z</time><extensions><gpxtpx:TrackPointExtension><gpxtpx:hr>149</gpxtpx:hr><gpxtpx:cad>84</gpxtpx:cad></gpxtpx:TrackPointExtension></extensions></trkpt>
<trkpt lat="44.993106" lon="5.006035"><ele>171.0</ele><time>2026-05-17T07:55:50Z</time><extensions><gpxtpx:TrackPointExtension><gpxtpx:hr>150</gpxtpx:hr><gpxtpx:cad>84</gpxtpx:cad></gpxtpx:TrackPointExtension></extensions></trkpt>
<trkpt lat="44.993208" lon="5.006022"><ele>171.2</ele><time>2026-05-17T07:55:55Z</time><extensions><gpxtpx:TrackPointExtension><gpxtpx:hr>151</gpxtpx:hr><gpxtpx:cad>84</gpxtpx:cad></gpxtpx:TrackPointExtension></extensions></trkpt>
<trkpt lat="44.993312" lon="5.006013"><ele>171.5</ele><time>2026-05-17T07:56:00Z</time><extensions><gpxtpx:TrackPointExtension><gpxtpx:hr>152</gpxtpx:hr><gpxtpx:cad>84</gpxtpx:cad></gpxtpx:TrackPointExtension></extensions></trkpt>
<trkpt lat="44.993418" lon="5.006008"><ele>171.7</ele><time>2026-05-17T07:56:05Z</time><extensions><gpxtpx:TrackPointExtension><gpxtpx:hr>153</gpxtpx:hr><gpxtpx:cad>84</gpxtpx:cad></gpxtpx:TrackPointExtension></extensions></trkpt>
<trkpt lat="44.993526" lon="5.006007"><ele>172.0</ele><time>2026-05-17T07:56:10Z</time><extensions><gpxtpx:TrackPointExtension><gpxtpx:hr>154</gpxtpx:hr><gpxtpx:cad>84</gpxtpx:cad></gpxtpx:TrackPointExtension></extensions></trkpt>
<trkpt lat="44.993636" lon="5.006010"><ele>172.3</ele><time>2026-05-17T07:56:15Z</time><extensions><gpxtpx:TrackPointExtension><gpxtpx:hr>155</gpxtpx:hr><gpxtpx:cad>84</gpxtpx:cad></gpxtpx:TrackPointExtension></extensions></trkpt>
<trkpt lat="44.993748" lon="5.006019"><ele>172.6</ele><time>2026-05-17T07:56:20Z</time><extensions><gpxtpx:TrackPointExtension><gpxtpx:hr>156</gpxtpx:hr><gpxtpx:cad>84</gpxtpx:cad></gpxtpx:TrackPointExtension></extensions></trkpt>
<trkpt lat="44.993862" lon="5.006033"><ele>173.0</ele><time>2026-05-17T07:56:25Z</time><extensions><gpxtpx:TrackPointExtension><gpxtpx:hr>157</gpxtpx:hr><gpxtpx:cad>84</gpxtpx:cad></gpxtpx:TrackPointExtension></extensions></trkpt>
<trkpt lat="44.993978" lon="5.006053"><ele>173.3</ele><time>2026-05-17T07:56:30Z</time><extensions><gpxtpx:TrackPointExtension><gpxtpx:hr>158</gpxtpx:hr><gpxtpx:cad>84</gpxtpx:cad></gpxtpx:TrackPointExtension></extensions></trkpt>
<trkpt lat="44.994095" lon="5.006079"><ele>173.7</ele><time>2026-05-17T07:56:35Z</time><extensions><gpxtpx:TrackPointExtension><gpxtpx:hr>159</gpxtpx:hr><gpxtpx:cad>84</gpxtpx:cad></gpxtpx:TrackPointExtension></extensions></trkpt>
<trkpt lat="44.994215" lon="5.006111"><ele>174.1</ele><time>2026-05-17T07:56:40Z</time><extensions><gpxtpx:TrackPointExtension><gpxtpx:hr>140</gpxtpx:hr><gpxtpx:cad>84</gpxtpx:cad></gpxtpx:TrackPointExtension></extensions></trkpt>
<trkpt lat="44.994336" lon="5.006150"><ele>174.5</ele><time>2026-05-17T07:56:45Z</time><extensions><gpxtpx:TrackPointExtension><gpxtpx:hr>141</gpxtpx:hr><gpxtpx:cad>84</gpxtpx:cad></gpxtpx:TrackPointExtension></extensions></trkpt>
<trkpt lat="44.994459" lon="5.006196"><ele>174.9</ele><time>2026-05-17T07:56:50Z</time><extensions><gpxtpx:TrackPointExtension><gpxtpx:hr>142</gpxtpx:hr><gpxtpx:cad>84</gpxtpx:cad></gpxtpx:TrackPointExtension></extensions></trkpt>
<trkpt lat="44.994584" lon="5.006249"><ele>175.3</ele><time>2026-05-17T07:56:55Z</time><extensions><gpxtpx:TrackPointExtension><gpxtpx:hr>143</gpxtpx:hr><gpxtpx:cad>84</gpxtpx:cad></gpxtpx:TrackPointExtension></extensions></trkpt>
<trkpt lat="44.994710" lon="5.006308"><ele>175.8</ele><time>2026-05-17T07:57:00Z</time><extensions><gpxtpx:TrackPointExtension><gpxtpx:hr>144</gpxtpx:hr><gpxtpx:cad>84</gpxtpx:cad></gpxtpx:TrackPointExtension></extensions></trkpt>
<trkpt lat="44.994838" lon="5.006376"><ele>176.3</ele><time>2026-05-17T07:57:05Z</time><extensions><gpxtpx:TrackPointExtension><gpxtpx:hr>145</gpxtpx:hr><gpxtpx:cad>84</gpxtpx:cad></gpxtpx:TrackPointExtension></extensions></trkpt>
<trkpt lat="44.994967" lon="5.006450"><ele>176.7</ele><time>2026-05-17T07:57:10Z</time><extensions><gpxtpx:TrackPointExtension><gpxtpx:hr>146</gpxtpx:hr><gpxtpx:cad>84</gpxtpx:cad></gpxtpx:TrackPointExtension></extensions></trkpt>
<trkpt lat="44.995098" lon="5.006533"><ele>177.2</ele><time>2026-05-17T07:57:15Z</time><extensions><gpxtpx:TrackPointExtension><gpxtpx:hr>147</gpxtpx:hr><gpxtpx:cad>84</gpxtpx:cad></gpxtpx:TrackPointExtension></extensions></trkpt>
<trkpt lat="44.995231" lon="5.006623"><ele>177.8</ele><time>2026-05-17T07:57:20Z</time><extensions><gpxtpx:TrackPointExtension><gpxtpx:hr>148</gpxtpx:hr><gpxtpx:cad>84</gpxtpx:cad></gpxtpx:TrackPointExtension></extensions></trkpt>
<trkpt lat="44.995365" lon="5.006720"><ele>178.3</ele><time>2026-05-17T07:57:25Z</time><extensions><gpxtpx:TrackPointExtension><gpxtpx:hr>149</gpxtpx:hr><gpxtpx:cad>84</gpxtpx:cad></gpxtpx:TrackPointExtension></extensions></trkpt>
<trkpt lat="44.995500" lon="5.006825"><ele>178.8</ele><time>2026-05-17T07:57:30Z</time><extensions><gpxtpx:TrackPointExtension><gpxtpx:hr>150</gpxtpx:hr><gpxtpx:cad>84</gpxtpx:cad></gpxtpx:TrackPointExtension></extensions></trkpt>
<trkpt lat="44.995637" lon="5.006938"><ele>179.4</ele><time>2026-05-17T07:57:35Z</time><extensions><gpxtpx:TrackPointExtension><gpxtpx:hr>151</gpxtpx:hr><gpxtpx:cad>84</gpxtpx:cad></gpxtpx:TrackPointExtension></extensions></trkpt>
<trkpt lat="44.995775" lon="5.007059"><ele>180.0</ele><time>2026-05-17T07:57:40Z</time><extensions><gpxtpx:TrackPointExtension><gpxtpx:hr>152</gpxtpx:hr><gpxtpx:cad>84</gpxtpx:cad></gpxtpx:TrackPointExtension></extensions></trkpt>
<trkpt lat="44.995914" lon="5.007187"><ele>180.6</ele><time>2026-05-17T07:57:45Z</time><extensions><gpxtpx:TrackPointExtension><gpxtpx:hr>153</gpxtpx:hr><gpxtpx:cad>84</gpxtpx:cad></gpxtpx:TrackPointExtension></extensions></trkpt>
<trkpt lat="44.996055" lon="5.007322"><ele>181.2</ele><time>2026-05-17T07:57:50Z</time><extensions><gpxtpx:TrackPointExtension><gpxtpx:hr>154</gpxtpx:hr><gpxtpx:cad>84</gpxtpx:cad></gpxtpx:TrackPointExtension></extensions></trkpt>
<trkpt lat="44.996196" lon="5.007465"><ele>181.8</ele><time>2026-05-17T07:57:55Z</time><extensions><gpxtpx:TrackPointExtension><gpxtpx:hr>155</gpxtpx:hr><gpxtpx:cad>84</gpxtpx:cad></gpxtpx:TrackPointExtension></extensions></trkpt>
<trkpt lat="44.996339" lon="5.007615"><ele>182.4</ele><time>2026-05-17T07:58:00Z</time><extensions><gpxtpx:TrackPointExtension><gpxtpx:hr>156</gpxtpx:hr><gpxtpx:cad>84</gpxtpx:cad></gpxtpx:TrackPointExtension></extensions></trkpt>
<trkpt lat="44.996483" lon="5.007772"><ele>183.0</ele><time>2026-05-17T07:58:05Z</time><extensions><gpxtpx:TrackPointExtension><gpxtpx:hr>157</gpxtpx:hr><gpxtpx:cad>84</gpxtpx:cad></gpxtpx:TrackPointExtension></extensions></trkpt>
<trkpt lat="44.996629" lon="5.007936"><ele>183.7</ele><time>2026-05-17T07:58:10Z</time><extensions><gpxtpx:TrackPointExtension><gpxtpx:hr>158</gpxtpx:hr><gpxtpx:cad>84</gpxtpx:cad></gpxtpx:TrackPointExtension></extensions></trkpt>
<trkpt lat="44.996775" lon="5.008106"><ele>184.3</ele><time>2026-05-17T07:58:15Z</time><extensions><gpxtpx:TrackPointExtension><gpxtpx:hr>159</gpxtpx:hr><gpxtpx:cad>84</gpxtpx:cad></gpxtpx:TrackPointExtension></extensions></trkpt>
<trkpt lat="44.996922" lon="5.008282"><ele>185.0</ele><time>2026-05-17T07:58:20Z</time><extensions><gpxtpx:TrackPointExtension><gpxtpx:hr>140</gpxtpx:hr><gpxtpx:cad>84</gpxtpx:cad></gpxtpx:TrackPointExtension></extensions></trkpt>
<trkpt lat="44.997070" lon="5.008464"><ele>185.7</ele><time>2026-05-17T07:58:25Z</time><extensions><gpxtpx:TrackPointExtension><gpxtpx:hr>141</gpxtpx:hr><gpxtpx:cad>84</gpxtpx:cad></gpxtpx:TrackPointExtension></extensions></trkpt>
<trkpt lat="44.997219" lon="5.008652"><ele>186.4</ele><time>2026-05-17T07:58:30Z</time><extensions><gpxtpx:TrackPointExtension><gpxtpx:hr>142</gpxtpx:hr><gpxtpx:cad>84</gpxtpx:cad></gpxtpx:TrackPointExtension></extensions></trkpt>
<trkpt lat="44.997369" lon="5.008845"><ele>187.1</ele><time>2026-05-17T07:58:35Z</time><extensions><gpxtpx:TrackPointExtension><gpxtpx:hr>143</gpxtpx:hr><gpxtpx:cad>84</gpxtpx:cad></gpxtpx:TrackPointExtension></extensions></trkpt>
<trkpt lat="44.997519" lon="5.009043"><ele>187.8</ele><time>2026-05-17T07:58:40Z</time><extensions><gpxtpx:TrackPointExtension><gpxtpx:hr>144</gpxtpx:hr><gpxtpx:cad>84</gpxtpx:cad></gpxtpx:TrackPointExtension></extensions></trkpt>
<trkpt lat="44.997671" lon="5.009246"><ele>188.5</ele><time>2026-05-17T07:58:45Z</time><extensions><gpxtpx:TrackPointExtension><gpxtpx:hr>145</gpxtpx:hr><gpxtpx:cad>84</gpxtpx:cad></gpxtpx:TrackPointExtension></extensions></trkpt>
<trkpt lat="44.997823" lon="5.009452"><ele>189.3</ele><time>2026-05-17T07:58:50Z</time><extensions><gpxtpx:TrackPointExtension><gpxtpx:hr>146</gpxtpx:hr><gpxtpx:cad>84</gpxtpx:cad></gpxtpx:TrackPointExtension></extensions></trkpt>
<trkpt lat="44.997975" lon="5.009662"><ele>190.0</ele><time>2026-05-17T07:58:55Z</time><extensions><gpxtpx:TrackPointExtension><gpxtpx:hr>147</gpxtpx:hr><gpxtpx:cad>84</gpxtpx:cad></gpxtpx:TrackPointExtension></extensions></trkpt>
<trkpt lat="44.998129" lon="5.009876"><ele>190.7</ele><time>2026-05-17T07:59:00Z</time><extensions><gpxtpx:TrackPointExtension><gpxtpx:hr>148</gpxtpx:hr><gpxtpx:cad>84</gpxtpx:cad></gpxtpx:TrackPointExtension></extensions></trkpt>
<trkpt lat="44.998283" lon="5.010092"><ele>191.5</ele><time>2026-05-17T07:59:05Z</time><extensions><gpxtpx:TrackPointExtension><gpxtpx:hr>149</gpxtpx:hr><gpxtpx:cad>84</gpxtpx:cad></gpxtpx:TrackPointExtension></extensions></trkpt>
<trkpt lat="44.998437" lon="5.010310"><ele>192.2</ele><time>2026-05-17T07:59:10Z</time><extensions><gpxtpx:TrackPointExtension><gpxtpx:hr>150</gpxtpx:hr><gpxtpx:cad>84</gpxtpx:cad></gpxtpx:TrackPointExtension></extensions></trkpt>
<trkpt lat="44.998592" lon="5.010530"><ele>193.0</ele><time>2026-05-17T07:59:15Z</time><extensions><gpxtpx:TrackPointExtension><gpxtpx:hr>151</gpxtpx:hr><gpxtpx:cad>84</gpxtpx:cad></gpxtpx:TrackPointExtension></extensions></trkpt>
<trkpt lat="44.998747" lon="5.010751"><ele>193.8</ele><time>2026-05-17T07:59:20Z</time><extensions><gpxtpx:TrackPointExtension><gpxtpx:hr>152</gpxtpx:hr><gpxtpx:cad>84</gpxtpx:cad></gpxtpx:TrackPointExtension></extensions></trkpt>
<trkpt lat="44.998903" lon="5.010973"><ele>194.5</ele><time>2026-05-17T07:59:25Z</time><extensions><gpxtpx:TrackPointExtension><gpxtpx:hr>153</gpxtpx:hr><gpxtpx:cad>84</gpxtpx:cad></gpxtpx:TrackPointExtension></extensions></trkpt>
<trkpt lat="44.999059" lon="5.011195"><ele>195.3</ele><time>2026-05-17T07:59:30Z</time><extensions><gpxtpx:TrackPointExtension><gpxtpx:hr>154</gpxtpx:hr><gpxtpx:cad>84</gpxtpx:cad></gpxtpx:TrackPointExtension></extensions></trkpt>
<trkpt lat="44.999216" lon="5.011417"><ele>196.1</ele><time>2026-05-17T07:59:35Z</time><extensions><gpxtpx:TrackPointExtension><gpxtpx:hr>155</gpxtpx:hr><gpxtpx:cad>84</gpxtpx:cad></gpxtpx:TrackPointExtension></extensions></trkpt>
<trkpt lat="44.999372" lon="5.011638"><ele>196.9</ele><time>2026-05-17T07:59:40Z</time><extensions><gpxtpx:TrackPointExtension><gpxtpx:hr>156</gpxtpx:hr><gpxtpx:cad>84</gpxtpx:cad></gpxtpx:TrackPointExtension></extensions></trkpt>
<trkpt lat="44.999529" lon="5.011857"><ele>197.6</ele><time>2026-05-17T07:59:45Z</time><extensions><gpxtpx:TrackPointExtension><gpxtpx:hr>157</gpxtpx:hr><gpxtpx:cad>84</gpxtpx:cad></gpxtpx:TrackPointExtension></extensions></trkpt>
<trkpt lat="44.999686" lon="5.012074"><ele>198.4</ele><time>2026-05-17T07:59:50Z</time><extensions><gpxtpx:TrackPointExtension><gpxtpx:hr>158</gpxtpx:hr><gpxtpx:cad>84</gpxtpx:cad></gpxtpx:TrackPointExtension></extensions></trkpt>
<trkpt lat="44.999843" lon="5.012289"><ele>199.2</ele><time>2026-05-17T07:59:55Z</time><extensions><gpxtpx:TrackPointExtension><gpxtpx:hr>159</gpxtpx:hr><gpxtpx:cad>84</gpxtpx:cad></gpxtpx:TrackPointExtension></extensions></trkpt>
</trkseg></trk>
</gpx>
